; Generated by Termite 1.3 (Build 260202) by Julian Jauk
; Termite built with Grasshopper 1.0.0008
; Saved with Rhino Version: 8.16.25042.13001
; Saved on OS: Microsoft Windows NT 10.0.26200.0
; Saved by User: ruizhehou
; Saved at: 2026.03.27 14:02:25 (yyyy.mm.dd hh:mm:ss)
; Estimated Printing Time: 00:05:14 (hh:mm:ss)
; Estimated Material Consumption: 144.57 ccm
; Estimated Material Weight: 0.26 kg (Wet Clay)
; Estimated Printing Path Length: 15714 mm
; Pause Points: 0
; Printer Model: WASP 40100 LDM Half
; Nozzle Diameter: 4 mm 
; Priming Paths: 0 mm
; First Layer Height: 4 mm
; Pre Fill Extrusion: 2
; Layer "Default" Extrusion Factor: 0.1 Speed: 3000 mm/m Paths: 1
; Layer "Travel" Extrusion Factor: 0 Speed: 6000 mm/m Paths: 0
; Retraction Height: 2 mm Speed: 1500 mm/m
; Safe Start Length: 8 mm Speed: 1500 mm/m
; Safe End Length: 8 mm Speed: 1500 mm/m
; Crossing Extrusion Factor: 1 Speed Factor: 1 (Not Activated) 
; Read Multi Layer Names: False
; Connect Multi Layer Paths: False
; Layer "Slow" Extrusion Factor: 1 Speed: 1500 mm/m Paths: 0
; Layer "Fast" Extrusion Factor: 1 Speed: 4500 mm/m Paths: 0
G28 ; MOVE TO ORIGIN (HOME)
G21 ; UNITS: MM
G90 ; ABSOLUTE COOD
M82 ; ABSOLUTE EXTRUDE
; END OF HEADER
G92 E0 F0 ;
G0 X2.18 Y30.62 Z6 E0 F6000 ; END OF TRAVEL
G1 X2.18 Y30.62 Z4 E0.2 F1500 ; END OF RETRACT DOWN
G1 X0.56 Y33.42 Z4.02 E0.52 F1500
G1 X0.14 Y34.07 Z4.03 E0.6 F1500
G1 X-0.56 Y33.66 Z4.03 E0.68 F1500
G1 X-3.32 Y32.07 Z4.05 E1 F1500 ; END OF SAFE START
G1 X-15.96 Y24.77 Z4.14 E2.46 F3000
G1 X-16.53 Y24.86 Z4.15 E2.52 F3000
G1 X-16.93 Y25.56 Z4.15 E2.6 F3000
G1 X-22.18 Y34.66 Z4.22 E3.65 F3000
G1 X-22.29 Y35.28 Z4.22 E3.71 F3000
G1 X-21.59 Y35.68 Z4.23 E3.79 F3000
G1 X-2.69 Y46.59 Z4.36 E5.97 F3000
G1 X-2.2 Y46.2 Z4.37 E6.04 F3000
G1 X-1.8 Y45.5 Z4.37 E6.12 F3000
G1 X47.5 Y-39.89 Z4.98 E15.98 F3000
G1 X46.82 Y-40.3 Z4.99 E16.06 F3000
G1 X27.92 Y-51.21 Z5.12 E18.24 F3000
G1 X27.35 Y-51.13 Z5.13 E18.3 F3000
G1 X26.94 Y-50.43 Z5.13 E18.38 F3000
G1 X21.69 Y-41.33 Z5.2 E19.43 F3000
G1 X21.58 Y-40.71 Z5.2 E19.49 F3000
G1 X22.28 Y-40.3 Z5.21 E19.57 F3000
G1 X37.67 Y-31.41 Z5.32 E21.35 F3000
G1 X37.65 Y-30.81 Z5.32 E21.41 F3000
G1 X37.24 Y-30.11 Z5.33 E21.49 F3000
G1 X36.03 Y-28.01 Z5.34 E21.73 F3000
G1 X35.42 Y-28.1 Z5.35 E21.8 F3000
G1 X34.72 Y-28.5 Z5.35 E21.88 F3000
G1 X20.02 Y-36.99 Z5.46 E23.57 F3000
G1 X19.35 Y-37.28 Z5.46 E23.65 F3000
G1 X18.94 Y-36.58 Z5.47 E23.73 F3000
G1 X-14.19 Y20.82 Z5.88 E30.36 F3000
G1 X-13.91 Y21.33 Z5.88 E30.41 F3000
G1 X-13.21 Y21.74 Z5.89 E30.49 F3000
G1 X2.17 Y30.63 Z6 E32.27 F3000
G1 X1.77 Y31.33 Z6.01 E32.35 F3000
G1 X0.55 Y33.43 Z6.02 E32.59 F3000
G1 X0.13 Y34.06 Z6.03 E32.67 F3000
G1 X-0.57 Y33.66 Z6.03 E32.75 F3000
G1 X-15.97 Y24.77 Z6.14 E34.53 F3000
G1 X-16.53 Y24.87 Z6.15 E34.59 F3000
G1 X-16.94 Y25.57 Z6.15 E34.67 F3000
G1 X-22.19 Y34.67 Z6.22 E35.72 F3000
G1 X-22.28 Y35.28 Z6.22 E35.78 F3000
G1 X-21.58 Y35.69 Z6.23 E35.86 F3000
G1 X-2.68 Y46.6 Z6.36 E38.04 F3000
G1 X-2.2 Y46.19 Z6.37 E38.11 F3000
G1 X-1.79 Y45.49 Z6.37 E38.19 F3000
G1 X47.51 Y-39.89 Z6.98 E48.05 F3000
G1 X46.81 Y-40.3 Z6.99 E48.13 F3000
G1 X27.91 Y-51.21 Z7.12 E50.31 F3000
G1 X27.34 Y-51.12 Z7.13 E50.37 F3000
G1 X26.94 Y-50.42 Z7.13 E50.45 F3000
G1 X21.69 Y-41.33 Z7.2 E51.5 F3000
G1 X21.58 Y-40.71 Z7.2 E51.56 F3000
G1 X22.28 Y-40.3 Z7.21 E51.64 F3000
G1 X37.68 Y-31.41 Z7.32 E53.42 F3000
G1 X37.64 Y-30.81 Z7.32 E53.48 F3000
G1 X37.24 Y-30.11 Z7.33 E53.56 F3000
G1 X36.03 Y-28.01 Z7.34 E53.8 F3000
G1 X35.41 Y-28.1 Z7.35 E53.87 F3000
G1 X34.71 Y-28.5 Z7.35 E53.95 F3000
G1 X20.01 Y-36.99 Z7.46 E55.64 F3000
G1 X19.35 Y-37.27 Z7.46 E55.72 F3000
G1 X18.94 Y-36.57 Z7.47 E55.8 F3000
G1 X-14.19 Y20.82 Z7.88 E62.42 F3000
G1 X-13.91 Y21.34 Z7.88 E62.48 F3000
G1 X-13.21 Y21.74 Z7.89 E62.56 F3000
G1 X2.17 Y30.63 Z8 E64.34 F3000
G1 X1.77 Y31.33 Z8.01 E64.42 F3000
G1 X0.55 Y33.43 Z8.02 E64.66 F3000
G1 X0.13 Y34.06 Z8.03 E64.74 F3000
G1 X-0.57 Y33.66 Z8.03 E64.82 F3000
G1 X-15.97 Y24.77 Z8.14 E66.6 F3000
G1 X-16.53 Y24.87 Z8.15 E66.66 F3000
G1 X-16.94 Y25.57 Z8.15 E66.74 F3000
G1 X-22.19 Y34.67 Z8.22 E67.79 F3000
G1 X-22.28 Y35.28 Z8.22 E67.85 F3000
G1 X-21.58 Y35.69 Z8.23 E67.93 F3000
G1 X-2.68 Y46.6 Z8.36 E70.11 F3000
G1 X-2.2 Y46.19 Z8.37 E70.18 F3000
G1 X-1.79 Y45.49 Z8.37 E70.26 F3000
G1 X47.51 Y-39.89 Z8.98 E80.12 F3000
G1 X46.81 Y-40.3 Z8.99 E80.2 F3000
G1 X27.91 Y-51.21 Z9.12 E82.38 F3000
G1 X27.34 Y-51.12 Z9.13 E82.44 F3000
G1 X26.94 Y-50.42 Z9.13 E82.52 F3000
G1 X21.69 Y-41.33 Z9.2 E83.57 F3000
G1 X21.58 Y-40.71 Z9.2 E83.63 F3000
G1 X22.28 Y-40.3 Z9.21 E83.71 F3000
G1 X37.68 Y-31.41 Z9.32 E85.49 F3000
G1 X37.64 Y-30.81 Z9.32 E85.55 F3000
G1 X37.24 Y-30.11 Z9.33 E85.63 F3000
G1 X36.03 Y-28.01 Z9.34 E85.87 F3000
G1 X35.41 Y-28.1 Z9.35 E85.94 F3000
G1 X34.71 Y-28.5 Z9.35 E86.02 F3000
G1 X20.01 Y-36.99 Z9.46 E87.71 F3000
G1 X19.35 Y-37.27 Z9.46 E87.79 F3000
G1 X18.94 Y-36.57 Z9.47 E87.87 F3000
G1 X-14.19 Y20.82 Z9.88 E94.49 F3000
G1 X-13.91 Y21.34 Z9.88 E94.55 F3000
G1 X-13.21 Y21.74 Z9.89 E94.63 F3000
G1 X2.17 Y30.63 Z10 E96.41 F3000
G1 X1.77 Y31.33 Z10.01 E96.49 F3000
G1 X0.55 Y33.43 Z10.02 E96.73 F3000
G1 X0.13 Y34.06 Z10.03 E96.81 F3000
G1 X-0.57 Y33.66 Z10.03 E96.89 F3000
G1 X-15.97 Y24.77 Z10.14 E98.67 F3000
G1 X-16.53 Y24.87 Z10.15 E98.73 F3000
G1 X-16.94 Y25.57 Z10.15 E98.81 F3000
G1 X-22.19 Y34.67 Z10.22 E99.86 F3000
G1 X-22.28 Y35.28 Z10.22 E99.92 F3000
G1 X-21.58 Y35.69 Z10.23 E100 F3000
G1 X-2.68 Y46.6 Z10.36 E102.18 F3000
G1 X-2.2 Y46.19 Z10.37 E102.24 F3000
G1 X-1.79 Y45.49 Z10.37 E102.33 F3000
G1 X47.51 Y-39.89 Z10.98 E112.19 F3000
G1 X46.81 Y-40.3 Z10.99 E112.27 F3000
G1 X27.91 Y-51.21 Z11.12 E114.45 F3000
G1 X27.34 Y-51.12 Z11.13 E114.51 F3000
G1 X26.94 Y-50.42 Z11.13 E114.59 F3000
G1 X21.69 Y-41.33 Z11.2 E115.64 F3000
G1 X21.58 Y-40.71 Z11.2 E115.7 F3000
G1 X22.28 Y-40.3 Z11.21 E115.78 F3000
G1 X37.68 Y-31.41 Z11.32 E117.56 F3000
G1 X37.64 Y-30.81 Z11.32 E117.62 F3000
G1 X37.24 Y-30.11 Z11.33 E117.7 F3000
G1 X36.03 Y-28.01 Z11.34 E117.94 F3000
G1 X35.41 Y-28.1 Z11.35 E118 F3000
G1 X34.71 Y-28.5 Z11.35 E118.09 F3000
G1 X20.01 Y-36.99 Z11.46 E119.78 F3000
G1 X19.35 Y-37.27 Z11.46 E119.86 F3000
G1 X18.94 Y-36.57 Z11.47 E119.94 F3000
G1 X-14.19 Y20.82 Z11.88 E126.56 F3000
G1 X-13.91 Y21.34 Z11.88 E126.62 F3000
G1 X-13.21 Y21.74 Z11.89 E126.7 F3000
G1 X2.17 Y30.63 Z12 E128.48 F3000
G1 X1.77 Y31.33 Z12.01 E128.56 F3000
G1 X0.55 Y33.43 Z12.02 E128.8 F3000
G1 X0.13 Y34.06 Z12.03 E128.88 F3000
G1 X-0.57 Y33.66 Z12.03 E128.96 F3000
G1 X-15.97 Y24.77 Z12.14 E130.74 F3000
G1 X-16.53 Y24.87 Z12.15 E130.79 F3000
G1 X-16.94 Y25.57 Z12.15 E130.88 F3000
G1 X-22.19 Y34.67 Z12.22 E131.93 F3000
G1 X-22.28 Y35.28 Z12.22 E131.99 F3000
G1 X-21.58 Y35.69 Z12.23 E132.07 F3000
G1 X-2.68 Y46.6 Z12.36 E134.25 F3000
G1 X-2.2 Y46.19 Z12.37 E134.31 F3000
G1 X-1.79 Y45.49 Z12.37 E134.4 F3000
G1 X47.51 Y-39.89 Z12.98 E144.26 F3000
G1 X46.81 Y-40.3 Z12.99 E144.34 F3000
G1 X27.91 Y-51.21 Z13.12 E146.52 F3000
G1 X27.34 Y-51.12 Z13.13 E146.58 F3000
G1 X26.94 Y-50.42 Z13.13 E146.66 F3000
G1 X21.69 Y-41.33 Z13.2 E147.71 F3000
G1 X21.58 Y-40.71 Z13.2 E147.77 F3000
G1 X22.28 Y-40.3 Z13.21 E147.85 F3000
G1 X37.68 Y-31.41 Z13.32 E149.63 F3000
G1 X37.64 Y-30.81 Z13.32 E149.69 F3000
G1 X37.24 Y-30.11 Z13.33 E149.77 F3000
G1 X36.03 Y-28.01 Z13.34 E150.01 F3000
G1 X35.41 Y-28.1 Z13.35 E150.07 F3000
G1 X34.71 Y-28.5 Z13.35 E150.15 F3000
G1 X20.01 Y-36.99 Z13.46 E151.85 F3000
G1 X19.35 Y-37.27 Z13.46 E151.92 F3000
G1 X18.94 Y-36.57 Z13.47 E152.01 F3000
G1 X-14.19 Y20.82 Z13.88 E158.63 F3000
G1 X-13.91 Y21.34 Z13.88 E158.69 F3000
G1 X-13.21 Y21.74 Z13.89 E158.77 F3000
G1 X2.17 Y30.63 Z14 E160.55 F3000
G1 X1.77 Y31.33 Z14.01 E160.63 F3000
G1 X0.55 Y33.43 Z14.02 E160.87 F3000
G1 X0.13 Y34.06 Z14.03 E160.95 F3000
G1 X-0.57 Y33.66 Z14.03 E161.03 F3000
G1 X-15.97 Y24.77 Z14.14 E162.81 F3000
G1 X-16.53 Y24.87 Z14.15 E162.86 F3000
G1 X-16.94 Y25.57 Z14.15 E162.94 F3000
G1 X-22.19 Y34.67 Z14.22 E164 F3000
G1 X-22.28 Y35.28 Z14.22 E164.06 F3000
G1 X-21.58 Y35.69 Z14.23 E164.14 F3000
G1 X-2.68 Y46.6 Z14.36 E166.32 F3000
G1 X-2.2 Y46.19 Z14.37 E166.38 F3000
G1 X-1.79 Y45.49 Z14.37 E166.46 F3000
G1 X47.51 Y-39.89 Z14.98 E176.32 F3000
G1 X46.81 Y-40.3 Z14.99 E176.4 F3000
G1 X27.91 Y-51.21 Z15.12 E178.59 F3000
G1 X27.34 Y-51.12 Z15.13 E178.64 F3000
G1 X26.94 Y-50.42 Z15.13 E178.73 F3000
G1 X21.69 Y-41.33 Z15.2 E179.78 F3000
G1 X21.58 Y-40.71 Z15.2 E179.84 F3000
G1 X22.28 Y-40.3 Z15.21 E179.92 F3000
G1 X37.68 Y-31.41 Z15.32 E181.7 F3000
G1 X37.64 Y-30.81 Z15.32 E181.76 F3000
G1 X37.24 Y-30.11 Z15.33 E181.84 F3000
G1 X36.03 Y-28.01 Z15.34 E182.08 F3000
G1 X35.41 Y-28.1 Z15.35 E182.14 F3000
G1 X34.71 Y-28.5 Z15.35 E182.22 F3000
G1 X20.01 Y-36.99 Z15.46 E183.92 F3000
G1 X19.35 Y-37.27 Z15.46 E183.99 F3000
G1 X18.94 Y-36.57 Z15.47 E184.07 F3000
G1 X-14.19 Y20.82 Z15.88 E190.7 F3000
G1 X-13.91 Y21.34 Z15.88 E190.76 F3000
G1 X-13.21 Y21.74 Z15.89 E190.84 F3000
G1 X2.17 Y30.63 Z16 E192.62 F3000
G1 X1.77 Y31.33 Z16.01 E192.7 F3000
G1 X0.55 Y33.43 Z16.02 E192.94 F3000
G1 X0.13 Y34.06 Z16.03 E193.02 F3000
G1 X-0.57 Y33.66 Z16.03 E193.1 F3000
G1 X-15.97 Y24.77 Z16.14 E194.88 F3000
G1 X-16.53 Y24.87 Z16.15 E194.93 F3000
G1 X-16.94 Y25.57 Z16.15 E195.01 F3000
G1 X-22.19 Y34.67 Z16.22 E196.06 F3000
G1 X-22.28 Y35.28 Z16.22 E196.13 F3000
G1 X-21.58 Y35.69 Z16.23 E196.21 F3000
G1 X-2.68 Y46.6 Z16.36 E198.39 F3000
G1 X-2.2 Y46.19 Z16.37 E198.45 F3000
G1 X-1.79 Y45.49 Z16.37 E198.53 F3000
G1 X47.51 Y-39.89 Z16.98 E208.39 F3000
G1 X46.81 Y-40.3 Z16.99 E208.47 F3000
G1 X27.91 Y-51.21 Z17.12 E210.66 F3000
G1 X27.34 Y-51.12 Z17.13 E210.71 F3000
G1 X26.94 Y-50.42 Z17.13 E210.79 F3000
G1 X21.69 Y-41.33 Z17.2 E211.85 F3000
G1 X21.58 Y-40.71 Z17.2 E211.91 F3000
G1 X22.28 Y-40.3 Z17.21 E211.99 F3000
G1 X37.68 Y-31.41 Z17.32 E213.77 F3000
G1 X37.64 Y-30.81 Z17.32 E213.83 F3000
G1 X37.24 Y-30.11 Z17.33 E213.91 F3000
G1 X36.03 Y-28.01 Z17.34 E214.15 F3000
G1 X35.41 Y-28.1 Z17.35 E214.21 F3000
G1 X34.71 Y-28.5 Z17.35 E214.29 F3000
G1 X20.01 Y-36.99 Z17.46 E215.99 F3000
G1 X19.35 Y-37.27 Z17.46 E216.06 F3000
G1 X18.94 Y-36.57 Z17.47 E216.14 F3000
G1 X-14.19 Y20.82 Z17.88 E222.77 F3000
G1 X-13.91 Y21.34 Z17.88 E222.83 F3000
G1 X-13.21 Y21.74 Z17.89 E222.91 F3000
G1 X2.17 Y30.63 Z18 E224.69 F3000
G1 X1.77 Y31.33 Z18.01 E224.77 F3000
G1 X0.55 Y33.43 Z18.02 E225.01 F3000
G1 X0.13 Y34.06 Z18.03 E225.09 F3000
G1 X-0.57 Y33.66 Z18.03 E225.17 F3000
G1 X-15.97 Y24.77 Z18.14 E226.95 F3000
G1 X-16.53 Y24.87 Z18.15 E227 F3000
G1 X-16.94 Y25.57 Z18.15 E227.08 F3000
G1 X-22.19 Y34.67 Z18.22 E228.13 F3000
G1 X-22.28 Y35.28 Z18.22 E228.2 F3000
G1 X-21.58 Y35.69 Z18.23 E228.28 F3000
G1 X-2.68 Y46.6 Z18.36 E230.46 F3000
G1 X-2.2 Y46.19 Z18.37 E230.52 F3000
G1 X-1.79 Y45.49 Z18.37 E230.6 F3000
G1 X47.51 Y-39.89 Z18.98 E240.46 F3000
G1 X46.81 Y-40.3 Z18.99 E240.54 F3000
G1 X27.91 Y-51.21 Z19.12 E242.73 F3000
G1 X27.34 Y-51.12 Z19.13 E242.78 F3000
G1 X26.94 Y-50.42 Z19.13 E242.86 F3000
G1 X21.69 Y-41.33 Z19.2 E243.91 F3000
G1 X21.58 Y-40.71 Z19.2 E243.98 F3000
G1 X22.28 Y-40.3 Z19.21 E244.06 F3000
G1 X37.68 Y-31.41 Z19.32 E245.84 F3000
G1 X37.64 Y-30.81 Z19.32 E245.9 F3000
G1 X37.24 Y-30.11 Z19.33 E245.98 F3000
G1 X36.03 Y-28.01 Z19.34 E246.22 F3000
G1 X35.41 Y-28.1 Z19.35 E246.28 F3000
G1 X34.71 Y-28.5 Z19.35 E246.36 F3000
G1 X20.01 Y-36.99 Z19.46 E248.06 F3000
G1 X19.35 Y-37.27 Z19.46 E248.13 F3000
G1 X18.94 Y-36.57 Z19.47 E248.21 F3000
G1 X-14.19 Y20.82 Z19.88 E254.84 F3000
G1 X-13.91 Y21.34 Z19.88 E254.9 F3000
G1 X-13.21 Y21.74 Z19.89 E254.98 F3000
G1 X2.17 Y30.63 Z20 E256.76 F3000
G1 X1.77 Y31.33 Z20.01 E256.84 F3000
G1 X0.55 Y33.43 Z20.02 E257.08 F3000
G1 X0.13 Y34.06 Z20.03 E257.16 F3000
G1 X-0.57 Y33.66 Z20.03 E257.24 F3000
G1 X-15.97 Y24.77 Z20.14 E259.01 F3000
G1 X-16.53 Y24.87 Z20.15 E259.07 F3000
G1 X-16.94 Y25.57 Z20.15 E259.15 F3000
G1 X-22.19 Y34.67 Z20.22 E260.2 F3000
G1 X-22.28 Y35.28 Z20.22 E260.27 F3000
G1 X-21.58 Y35.69 Z20.23 E260.35 F3000
G1 X-2.68 Y46.6 Z20.36 E262.53 F3000
G1 X-2.2 Y46.19 Z20.37 E262.59 F3000
G1 X-1.79 Y45.49 Z20.37 E262.67 F3000
G1 X47.51 Y-39.89 Z20.98 E272.53 F3000
G1 X46.81 Y-40.3 Z20.99 E272.61 F3000
G1 X27.91 Y-51.21 Z21.12 E274.8 F3000
G1 X27.34 Y-51.12 Z21.13 E274.85 F3000
G1 X26.94 Y-50.42 Z21.13 E274.93 F3000
G1 X21.69 Y-41.33 Z21.2 E275.98 F3000
G1 X21.58 Y-40.71 Z21.2 E276.05 F3000
G1 X22.28 Y-40.3 Z21.21 E276.13 F3000
G1 X37.68 Y-31.41 Z21.32 E277.91 F3000
G1 X37.64 Y-30.81 Z21.32 E277.97 F3000
G1 X37.24 Y-30.11 Z21.33 E278.05 F3000
G1 X36.03 Y-28.01 Z21.34 E278.29 F3000
G1 X35.41 Y-28.1 Z21.35 E278.35 F3000
G1 X34.71 Y-28.5 Z21.35 E278.43 F3000
G1 X20.01 Y-36.99 Z21.46 E280.13 F3000
G1 X19.35 Y-37.27 Z21.46 E280.2 F3000
G1 X18.94 Y-36.57 Z21.47 E280.28 F3000
G1 X-14.19 Y20.82 Z21.88 E286.91 F3000
G1 X-13.91 Y21.34 Z21.88 E286.97 F3000
G1 X-13.21 Y21.74 Z21.89 E287.05 F3000
G1 X2.17 Y30.63 Z22 E288.83 F3000
G1 X1.77 Y31.33 Z22.01 E288.91 F3000
G1 X0.55 Y33.43 Z22.02 E289.15 F3000
G1 X0.13 Y34.06 Z22.03 E289.23 F3000
G1 X-0.57 Y33.66 Z22.03 E289.31 F3000
G1 X-15.97 Y24.77 Z22.14 E291.08 F3000
G1 X-16.53 Y24.87 Z22.15 E291.14 F3000
G1 X-16.94 Y25.57 Z22.15 E291.22 F3000
G1 X-22.19 Y34.67 Z22.22 E292.27 F3000
G1 X-22.28 Y35.28 Z22.22 E292.34 F3000
G1 X-21.58 Y35.69 Z22.23 E292.42 F3000
G1 X-2.68 Y46.6 Z22.36 E294.6 F3000
G1 X-2.2 Y46.19 Z22.37 E294.66 F3000
G1 X-1.79 Y45.49 Z22.37 E294.74 F3000
G1 X47.51 Y-39.89 Z22.98 E304.6 F3000
G1 X46.81 Y-40.3 Z22.99 E304.68 F3000
G1 X27.91 Y-51.21 Z23.12 E306.86 F3000
G1 X27.34 Y-51.12 Z23.13 E306.92 F3000
G1 X26.94 Y-50.42 Z23.13 E307 F3000
G1 X21.69 Y-41.33 Z23.2 E308.05 F3000
G1 X21.58 Y-40.71 Z23.2 E308.12 F3000
G1 X22.28 Y-40.3 Z23.21 E308.2 F3000
G1 X37.68 Y-31.41 Z23.32 E309.98 F3000
G1 X37.64 Y-30.81 Z23.32 E310.04 F3000
G1 X37.24 Y-30.11 Z23.33 E310.12 F3000
G1 X36.03 Y-28.01 Z23.34 E310.36 F3000
G1 X35.41 Y-28.1 Z23.35 E310.42 F3000
G1 X34.71 Y-28.5 Z23.35 E310.5 F3000
G1 X20.01 Y-36.99 Z23.46 E312.2 F3000
G1 X19.35 Y-37.27 Z23.46 E312.27 F3000
G1 X18.94 Y-36.57 Z23.47 E312.35 F3000
G1 X-14.19 Y20.82 Z23.88 E318.98 F3000
G1 X-13.91 Y21.34 Z23.88 E319.04 F3000
G1 X-13.21 Y21.74 Z23.89 E319.12 F3000
G1 X2.17 Y30.63 Z24 E320.9 F3000
G1 X1.77 Y31.33 Z24.01 E320.98 F3000
G1 X0.55 Y33.43 Z24.02 E321.22 F3000
G1 X0.13 Y34.06 Z24.03 E321.29 F3000
G1 X-0.57 Y33.66 Z24.03 E321.38 F3000
G1 X-15.97 Y24.77 Z24.14 E323.15 F3000
G1 X-16.53 Y24.87 Z24.15 E323.21 F3000
G1 X-16.94 Y25.57 Z24.15 E323.29 F3000
G1 X-22.19 Y34.67 Z24.22 E324.34 F3000
G1 X-22.28 Y35.28 Z24.22 E324.4 F3000
G1 X-21.58 Y35.69 Z24.23 E324.49 F3000
G1 X-2.68 Y46.6 Z24.36 E326.67 F3000
G1 X-2.2 Y46.19 Z24.37 E326.73 F3000
G1 X-1.79 Y45.49 Z24.37 E326.81 F3000
G1 X47.51 Y-39.89 Z24.98 E336.67 F3000
G1 X46.81 Y-40.3 Z24.99 E336.75 F3000
G1 X27.91 Y-51.21 Z25.12 E338.93 F3000
G1 X27.34 Y-51.12 Z25.13 E338.99 F3000
G1 X26.94 Y-50.42 Z25.13 E339.07 F3000
G1 X21.69 Y-41.33 Z25.2 E340.12 F3000
G1 X21.58 Y-40.71 Z25.2 E340.19 F3000
G1 X22.28 Y-40.3 Z25.21 E340.27 F3000
G1 X37.68 Y-31.41 Z25.32 E342.04 F3000
G1 X37.64 Y-30.81 Z25.32 E342.1 F3000
G1 X37.24 Y-30.11 Z25.33 E342.19 F3000
G1 X36.03 Y-28.01 Z25.34 E342.43 F3000
G1 X35.41 Y-28.1 Z25.35 E342.49 F3000
G1 X34.71 Y-28.5 Z25.35 E342.57 F3000
G1 X20.01 Y-36.99 Z25.46 E344.27 F3000
G1 X19.35 Y-37.27 Z25.46 E344.34 F3000
G1 X18.94 Y-36.57 Z25.47 E344.42 F3000
G1 X-14.19 Y20.82 Z25.88 E351.05 F3000
G1 X-13.91 Y21.34 Z25.88 E351.11 F3000
G1 X-13.21 Y21.74 Z25.89 E351.19 F3000
G1 X2.17 Y30.63 Z26 E352.97 F3000
G1 X1.77 Y31.33 Z26.01 E353.05 F3000
G1 X0.55 Y33.43 Z26.02 E353.29 F3000
G1 X0.13 Y34.06 Z26.03 E353.36 F3000
G1 X-0.57 Y33.66 Z26.03 E353.44 F3000
G1 X-15.97 Y24.77 Z26.14 E355.22 F3000
G1 X-16.53 Y24.87 Z26.15 E355.28 F3000
G1 X-16.94 Y25.57 Z26.15 E355.36 F3000
G1 X-22.19 Y34.67 Z26.22 E356.41 F3000
G1 X-22.28 Y35.28 Z26.22 E356.47 F3000
G1 X-21.58 Y35.69 Z26.23 E356.55 F3000
G1 X-2.68 Y46.6 Z26.36 E358.74 F3000
G1 X-2.2 Y46.19 Z26.37 E358.8 F3000
G1 X-1.79 Y45.49 Z26.37 E358.88 F3000
G1 X47.51 Y-39.89 Z26.98 E368.74 F3000
G1 X46.81 Y-40.3 Z26.99 E368.82 F3000
G1 X27.91 Y-51.21 Z27.12 E371 F3000
G1 X27.34 Y-51.12 Z27.13 E371.06 F3000
G1 X26.94 Y-50.42 Z27.13 E371.14 F3000
G1 X21.69 Y-41.33 Z27.2 E372.19 F3000
G1 X21.58 Y-40.71 Z27.2 E372.26 F3000
G1 X22.28 Y-40.3 Z27.21 E372.34 F3000
G1 X37.68 Y-31.41 Z27.32 E374.11 F3000
G1 X37.64 Y-30.81 Z27.32 E374.17 F3000
G1 X37.24 Y-30.11 Z27.33 E374.26 F3000
G1 X36.03 Y-28.01 Z27.34 E374.5 F3000
G1 X35.41 Y-28.1 Z27.35 E374.56 F3000
G1 X34.71 Y-28.5 Z27.35 E374.64 F3000
G1 X20.01 Y-36.99 Z27.46 E376.34 F3000
G1 X19.35 Y-37.27 Z27.46 E376.41 F3000
G1 X18.94 Y-36.57 Z27.47 E376.49 F3000
G1 X-14.19 Y20.82 Z27.88 E383.12 F3000
G1 X-13.91 Y21.34 Z27.88 E383.18 F3000
G1 X-13.21 Y21.74 Z27.89 E383.26 F3000
G1 X2.17 Y30.63 Z28 E385.03 F3000
G1 X1.77 Y31.33 Z28.01 E385.12 F3000
G1 X0.55 Y33.43 Z28.02 E385.36 F3000
G1 X0.13 Y34.06 Z28.03 E385.43 F3000
G1 X-0.57 Y33.66 Z28.03 E385.51 F3000
G1 X-15.97 Y24.77 Z28.14 E387.29 F3000
G1 X-16.53 Y24.87 Z28.15 E387.35 F3000
G1 X-16.94 Y25.57 Z28.15 E387.43 F3000
G1 X-22.19 Y34.67 Z28.22 E388.48 F3000
G1 X-22.28 Y35.28 Z28.22 E388.54 F3000
G1 X-21.58 Y35.69 Z28.23 E388.62 F3000
G1 X-2.68 Y46.6 Z28.36 E390.81 F3000
G1 X-2.2 Y46.19 Z28.37 E390.87 F3000
G1 X-1.79 Y45.49 Z28.37 E390.95 F3000
G1 X47.51 Y-39.89 Z28.98 E400.81 F3000
G1 X46.81 Y-40.3 Z28.99 E400.89 F3000
G1 X27.91 Y-51.21 Z29.12 E403.07 F3000
G1 X27.34 Y-51.12 Z29.13 E403.13 F3000
G1 X26.94 Y-50.42 Z29.13 E403.21 F3000
G1 X21.69 Y-41.33 Z29.2 E404.26 F3000
G1 X21.58 Y-40.71 Z29.2 E404.32 F3000
G1 X22.28 Y-40.3 Z29.21 E404.41 F3000
G1 X37.68 Y-31.41 Z29.32 E406.18 F3000
G1 X37.64 Y-30.81 Z29.32 E406.24 F3000
G1 X37.24 Y-30.11 Z29.33 E406.32 F3000
G1 X36.03 Y-28.01 Z29.34 E406.57 F3000
G1 X35.41 Y-28.1 Z29.35 E406.63 F3000
G1 X34.71 Y-28.5 Z29.35 E406.71 F3000
G1 X20.01 Y-36.99 Z29.46 E408.41 F3000
G1 X19.35 Y-37.27 Z29.46 E408.48 F3000
G1 X18.94 Y-36.57 Z29.47 E408.56 F3000
G1 X-14.19 Y20.82 Z29.88 E415.19 F3000
G1 X-13.91 Y21.34 Z29.88 E415.25 F3000
G1 X-13.21 Y21.74 Z29.89 E415.33 F3000
G1 X2.17 Y30.63 Z30 E417.1 F3000
G1 X1.77 Y31.33 Z30.01 E417.18 F3000
G1 X0.55 Y33.43 Z30.02 E417.43 F3000
G1 X0.13 Y34.06 Z30.03 E417.5 F3000
G1 X-0.57 Y33.66 Z30.03 E417.58 F3000
G1 X-15.97 Y24.77 Z30.14 E419.36 F3000
G1 X-16.53 Y24.87 Z30.15 E419.42 F3000
G1 X-16.94 Y25.57 Z30.15 E419.5 F3000
G1 X-22.19 Y34.67 Z30.22 E420.55 F3000
G1 X-22.28 Y35.28 Z30.22 E420.61 F3000
G1 X-21.58 Y35.69 Z30.23 E420.69 F3000
G1 X-2.68 Y46.6 Z30.36 E422.88 F3000
G1 X-2.2 Y46.19 Z30.37 E422.94 F3000
G1 X-1.79 Y45.49 Z30.37 E423.02 F3000
G1 X47.51 Y-39.89 Z30.98 E432.88 F3000
G1 X46.81 Y-40.3 Z30.99 E432.96 F3000
G1 X27.91 Y-51.21 Z31.12 E435.14 F3000
G1 X27.34 Y-51.12 Z31.13 E435.2 F3000
G1 X26.94 Y-50.42 Z31.13 E435.28 F3000
G1 X21.69 Y-41.33 Z31.2 E436.33 F3000
G1 X21.58 Y-40.71 Z31.2 E436.39 F3000
G1 X22.28 Y-40.3 Z31.21 E436.47 F3000
G1 X37.68 Y-31.41 Z31.32 E438.25 F3000
G1 X37.64 Y-30.81 Z31.32 E438.31 F3000
G1 X37.24 Y-30.11 Z31.33 E438.39 F3000
G1 X36.03 Y-28.01 Z31.34 E438.64 F3000
G1 X35.41 Y-28.1 Z31.35 E438.7 F3000
G1 X34.71 Y-28.5 Z31.35 E438.78 F3000
G1 X20.01 Y-36.99 Z31.46 E440.48 F3000
G1 X19.35 Y-37.27 Z31.46 E440.55 F3000
G1 X18.94 Y-36.57 Z31.47 E440.63 F3000
G1 X-14.19 Y20.82 Z31.88 E447.26 F3000
G1 X-13.91 Y21.34 Z31.88 E447.32 F3000
G1 X-13.21 Y21.74 Z31.89 E447.4 F3000
G1 X2.17 Y30.63 Z32 E449.17 F3000
G1 X1.77 Y31.33 Z32.01 E449.25 F3000
G1 X0.55 Y33.43 Z32.02 E449.5 F3000
G1 X0.13 Y34.06 Z32.03 E449.57 F3000
G1 X-0.57 Y33.66 Z32.03 E449.65 F3000
G1 X-15.97 Y24.77 Z32.14 E451.43 F3000
G1 X-16.53 Y24.87 Z32.15 E451.49 F3000
G1 X-16.94 Y25.57 Z32.15 E451.57 F3000
G1 X-22.19 Y34.67 Z32.22 E452.62 F3000
G1 X-22.28 Y35.28 Z32.22 E452.68 F3000
G1 X-21.58 Y35.69 Z32.23 E452.76 F3000
G1 X-2.68 Y46.6 Z32.36 E454.94 F3000
G1 X-2.2 Y46.19 Z32.37 E455.01 F3000
G1 X-1.79 Y45.49 Z32.37 E455.09 F3000
G1 X47.51 Y-39.89 Z32.98 E464.95 F3000
G1 X46.81 Y-40.3 Z32.99 E465.03 F3000
G1 X27.91 Y-51.21 Z33.12 E467.21 F3000
G1 X27.34 Y-51.12 Z33.13 E467.27 F3000
G1 X26.94 Y-50.42 Z33.13 E467.35 F3000
G1 X21.69 Y-41.33 Z33.2 E468.4 F3000
G1 X21.58 Y-40.71 Z33.2 E468.46 F3000
G1 X22.28 Y-40.3 Z33.21 E468.54 F3000
G1 X37.68 Y-31.41 Z33.32 E470.32 F3000
G1 X37.64 Y-30.81 Z33.32 E470.38 F3000
G1 X37.24 Y-30.11 Z33.33 E470.46 F3000
G1 X36.03 Y-28.01 Z33.34 E470.71 F3000
G1 X35.41 Y-28.1 Z33.35 E470.77 F3000
G1 X34.71 Y-28.5 Z33.35 E470.85 F3000
G1 X20.01 Y-36.99 Z33.46 E472.55 F3000
G1 X19.35 Y-37.27 Z33.46 E472.62 F3000
G1 X18.94 Y-36.57 Z33.47 E472.7 F3000
G1 X-14.19 Y20.82 Z33.88 E479.33 F3000
G1 X-13.91 Y21.34 Z33.88 E479.39 F3000
G1 X-13.21 Y21.74 Z33.89 E479.47 F3000
G1 X2.17 Y30.63 Z34 E481.24 F3000
G1 X1.77 Y31.33 Z34.01 E481.32 F3000
G1 X0.55 Y33.43 Z34.02 E481.57 F3000
G1 X0.13 Y34.06 Z34.03 E481.64 F3000
G1 X-0.57 Y33.66 Z34.03 E481.72 F3000
G1 X-15.97 Y24.77 Z34.14 E483.5 F3000
G1 X-16.53 Y24.87 Z34.15 E483.56 F3000
G1 X-16.94 Y25.57 Z34.15 E483.64 F3000
G1 X-22.19 Y34.67 Z34.22 E484.69 F3000
G1 X-22.28 Y35.28 Z34.22 E484.75 F3000
G1 X-21.58 Y35.69 Z34.23 E484.83 F3000
G1 X-2.68 Y46.6 Z34.36 E487.01 F3000
G1 X-2.2 Y46.19 Z34.37 E487.08 F3000
G1 X-1.79 Y45.49 Z34.37 E487.16 F3000
G1 X47.51 Y-39.89 Z34.98 E497.02 F3000
G1 X46.81 Y-40.3 Z34.99 E497.1 F3000
G1 X27.91 Y-51.21 Z35.12 E499.28 F3000
G1 X27.34 Y-51.12 Z35.13 E499.34 F3000
G1 X26.94 Y-50.42 Z35.13 E499.42 F3000
G1 X21.69 Y-41.33 Z35.2 E500.47 F3000
G1 X21.58 Y-40.71 Z35.2 E500.53 F3000
G1 X22.28 Y-40.3 Z35.21 E500.61 F3000
G1 X37.68 Y-31.41 Z35.32 E502.39 F3000
G1 X37.64 Y-30.81 Z35.32 E502.45 F3000
G1 X37.24 Y-30.11 Z35.33 E502.53 F3000
G1 X36.03 Y-28.01 Z35.34 E502.77 F3000
G1 X35.41 Y-28.1 Z35.35 E502.84 F3000
G1 X34.71 Y-28.5 Z35.35 E502.92 F3000
G1 X20.01 Y-36.99 Z35.46 E504.62 F3000
G1 X19.35 Y-37.27 Z35.46 E504.69 F3000
G1 X18.94 Y-36.57 Z35.47 E504.77 F3000
G1 X-14.19 Y20.82 Z35.88 E511.4 F3000
G1 X-13.91 Y21.34 Z35.88 E511.45 F3000
G1 X-13.21 Y21.74 Z35.89 E511.54 F3000
G1 X2.17 Y30.63 Z36 E513.31 F3000
G1 X1.77 Y31.33 Z36.01 E513.39 F3000
G1 X0.55 Y33.43 Z36.02 E513.64 F3000
G1 X0.13 Y34.06 Z36.03 E513.71 F3000
G1 X-0.57 Y33.66 Z36.03 E513.79 F3000
G1 X-15.97 Y24.77 Z36.14 E515.57 F3000
G1 X-16.53 Y24.87 Z36.15 E515.63 F3000
G1 X-16.94 Y25.57 Z36.15 E515.71 F3000
G1 X-22.19 Y34.67 Z36.22 E516.76 F3000
G1 X-22.28 Y35.28 Z36.22 E516.82 F3000
G1 X-21.58 Y35.69 Z36.23 E516.9 F3000
G1 X-2.68 Y46.6 Z36.36 E519.08 F3000
G1 X-2.2 Y46.19 Z36.37 E519.15 F3000
G1 X-1.79 Y45.49 Z36.37 E519.23 F3000
G1 X47.51 Y-39.89 Z36.98 E529.09 F3000
G1 X46.81 Y-40.3 Z36.99 E529.17 F3000
G1 X27.91 Y-51.21 Z37.12 E531.35 F3000
G1 X27.34 Y-51.12 Z37.13 E531.41 F3000
G1 X26.94 Y-50.42 Z37.13 E531.49 F3000
G1 X21.69 Y-41.33 Z37.2 E532.54 F3000
G1 X21.58 Y-40.71 Z37.2 E532.6 F3000
G1 X22.28 Y-40.3 Z37.21 E532.68 F3000
G1 X37.68 Y-31.41 Z37.32 E534.46 F3000
G1 X37.64 Y-30.81 Z37.32 E534.52 F3000
G1 X37.24 Y-30.11 Z37.33 E534.6 F3000
G1 X36.03 Y-28.01 Z37.34 E534.84 F3000
G1 X35.41 Y-28.1 Z37.35 E534.91 F3000
G1 X34.71 Y-28.5 Z37.35 E534.99 F3000
G1 X20.01 Y-36.99 Z37.46 E536.68 F3000
G1 X19.35 Y-37.27 Z37.46 E536.76 F3000
G1 X18.94 Y-36.57 Z37.47 E536.84 F3000
G1 X-14.19 Y20.82 Z37.88 E543.46 F3000
G1 X-13.91 Y21.34 Z37.88 E543.52 F3000
G1 X-13.21 Y21.74 Z37.89 E543.6 F3000
G1 X2.17 Y30.63 Z38 E545.38 F3000
G1 X1.77 Y31.33 Z38.01 E545.46 F3000
G1 X0.55 Y33.43 Z38.02 E545.7 F3000
G1 X0.13 Y34.06 Z38.03 E545.78 F3000
G1 X-0.57 Y33.66 Z38.03 E545.86 F3000
G1 X-15.97 Y24.77 Z38.14 E547.64 F3000
G1 X-16.53 Y24.87 Z38.15 E547.7 F3000
G1 X-16.94 Y25.57 Z38.15 E547.78 F3000
G1 X-22.19 Y34.67 Z38.22 E548.83 F3000
G1 X-22.28 Y35.28 Z38.22 E548.89 F3000
G1 X-21.58 Y35.69 Z38.23 E548.97 F3000
G1 X-2.68 Y46.6 Z38.36 E551.15 F3000
G1 X-2.2 Y46.19 Z38.37 E551.22 F3000
G1 X-1.79 Y45.49 Z38.37 E551.3 F3000
G1 X47.51 Y-39.89 Z38.98 E561.16 F3000
G1 X46.81 Y-40.3 Z38.99 E561.24 F3000
G1 X27.91 Y-51.21 Z39.12 E563.42 F3000
G1 X27.34 Y-51.12 Z39.13 E563.48 F3000
G1 X26.94 Y-50.42 Z39.13 E563.56 F3000
G1 X21.69 Y-41.33 Z39.2 E564.61 F3000
G1 X21.58 Y-40.71 Z39.2 E564.67 F3000
G1 X22.28 Y-40.3 Z39.21 E564.75 F3000
G1 X37.68 Y-31.41 Z39.32 E566.53 F3000
G1 X37.64 Y-30.81 Z39.32 E566.59 F3000
G1 X37.24 Y-30.11 Z39.33 E566.67 F3000
G1 X36.03 Y-28.01 Z39.34 E566.91 F3000
G1 X35.41 Y-28.1 Z39.35 E566.98 F3000
G1 X34.71 Y-28.5 Z39.35 E567.06 F3000
G1 X20.01 Y-36.99 Z39.46 E568.75 F3000
G1 X19.35 Y-37.27 Z39.46 E568.83 F3000
G1 X18.94 Y-36.57 Z39.47 E568.91 F3000
G1 X-14.19 Y20.82 Z39.88 E575.53 F3000
G1 X-13.91 Y21.34 Z39.88 E575.59 F3000
G1 X-13.21 Y21.74 Z39.89 E575.67 F3000
G1 X2.17 Y30.63 Z40 E577.45 F3000
G1 X1.77 Y31.33 Z40.01 E577.53 F3000
G1 X0.55 Y33.43 Z40.02 E577.77 F3000
G1 X0.13 Y34.06 Z40.03 E577.85 F3000
G1 X-0.57 Y33.66 Z40.03 E577.93 F3000
G1 X-15.97 Y24.77 Z40.14 E579.71 F3000
G1 X-16.53 Y24.87 Z40.15 E579.77 F3000
G1 X-16.94 Y25.57 Z40.15 E579.85 F3000
G1 X-22.19 Y34.67 Z40.22 E580.9 F3000
G1 X-22.28 Y35.28 Z40.22 E580.96 F3000
G1 X-21.58 Y35.69 Z40.23 E581.04 F3000
G1 X-2.68 Y46.6 Z40.36 E583.22 F3000
G1 X-2.2 Y46.19 Z40.37 E583.29 F3000
G1 X-1.79 Y45.49 Z40.37 E583.37 F3000
G1 X47.51 Y-39.89 Z40.98 E593.23 F3000
G1 X46.81 Y-40.3 Z40.99 E593.31 F3000
G1 X27.91 Y-51.21 Z41.12 E595.49 F3000
G1 X27.34 Y-51.12 Z41.13 E595.55 F3000
G1 X26.94 Y-50.42 Z41.13 E595.63 F3000
G1 X21.69 Y-41.33 Z41.2 E596.68 F3000
G1 X21.58 Y-40.71 Z41.2 E596.74 F3000
G1 X22.28 Y-40.3 Z41.21 E596.82 F3000
G1 X37.68 Y-31.41 Z41.32 E598.6 F3000
G1 X37.64 Y-30.81 Z41.32 E598.66 F3000
G1 X37.24 Y-30.11 Z41.33 E598.74 F3000
G1 X36.03 Y-28.01 Z41.34 E598.98 F3000
G1 X35.41 Y-28.1 Z41.35 E599.05 F3000
G1 X34.71 Y-28.5 Z41.35 E599.13 F3000
G1 X20.01 Y-36.99 Z41.46 E600.82 F3000
G1 X19.35 Y-37.27 Z41.46 E600.9 F3000
G1 X18.94 Y-36.57 Z41.47 E600.98 F3000
G1 X-14.19 Y20.82 Z41.88 E607.6 F3000
G1 X-13.91 Y21.34 Z41.88 E607.66 F3000
G1 X-13.21 Y21.74 Z41.89 E607.74 F3000
G1 X2.17 Y30.63 Z42 E609.52 F3000
G1 X1.77 Y31.33 Z42.01 E609.6 F3000
G1 X0.55 Y33.43 Z42.02 E609.84 F3000
G1 X0.13 Y34.06 Z42.03 E609.92 F3000
G1 X-0.57 Y33.66 Z42.03 E610 F3000
G1 X-15.97 Y24.77 Z42.14 E611.78 F3000
G1 X-16.53 Y24.87 Z42.15 E611.84 F3000
G1 X-16.94 Y25.57 Z42.15 E611.92 F3000
G1 X-22.19 Y34.67 Z42.22 E612.97 F3000
G1 X-22.28 Y35.28 Z42.22 E613.03 F3000
G1 X-21.58 Y35.69 Z42.23 E613.11 F3000
G1 X-2.68 Y46.6 Z42.36 E615.29 F3000
G1 X-2.2 Y46.19 Z42.37 E615.35 F3000
G1 X-1.79 Y45.49 Z42.37 E615.44 F3000
G1 X47.51 Y-39.89 Z42.98 E625.3 F3000
G1 X46.81 Y-40.3 Z42.99 E625.38 F3000
G1 X27.91 Y-51.21 Z43.12 E627.56 F3000
G1 X27.34 Y-51.12 Z43.13 E627.62 F3000
G1 X26.94 Y-50.42 Z43.13 E627.7 F3000
G1 X21.69 Y-41.33 Z43.2 E628.75 F3000
G1 X21.58 Y-40.71 Z43.2 E628.81 F3000
G1 X22.28 Y-40.3 Z43.21 E628.89 F3000
G1 X37.68 Y-31.41 Z43.32 E630.67 F3000
G1 X37.64 Y-30.81 Z43.32 E630.73 F3000
G1 X37.24 Y-30.11 Z43.33 E630.81 F3000
G1 X36.03 Y-28.01 Z43.34 E631.05 F3000
G1 X35.41 Y-28.1 Z43.35 E631.11 F3000
G1 X34.71 Y-28.5 Z43.35 E631.2 F3000
G1 X20.01 Y-36.99 Z43.46 E632.89 F3000
G1 X19.35 Y-37.27 Z43.46 E632.97 F3000
G1 X18.94 Y-36.57 Z43.47 E633.05 F3000
G1 X-14.19 Y20.82 Z43.88 E639.67 F3000
G1 X-13.91 Y21.34 Z43.88 E639.73 F3000
G1 X-13.21 Y21.74 Z43.89 E639.81 F3000
G1 X2.17 Y30.63 Z44 E641.59 F3000
G1 X1.77 Y31.33 Z44.01 E641.67 F3000
G1 X0.55 Y33.43 Z44.02 E641.91 F3000
G1 X0.13 Y34.06 Z44.03 E641.99 F3000
G1 X-0.57 Y33.66 Z44.03 E642.07 F3000
G1 X-15.97 Y24.77 Z44.14 E643.85 F3000
G1 X-16.53 Y24.87 Z44.15 E643.9 F3000
G1 X-16.94 Y25.57 Z44.15 E643.99 F3000
G1 X-22.19 Y34.67 Z44.22 E645.04 F3000
G1 X-22.28 Y35.28 Z44.22 E645.1 F3000
G1 X-21.58 Y35.69 Z44.23 E645.18 F3000
G1 X-2.68 Y46.6 Z44.36 E647.36 F3000
G1 X-2.2 Y46.19 Z44.37 E647.42 F3000
G1 X-1.79 Y45.49 Z44.37 E647.5 F3000
G1 X47.51 Y-39.89 Z44.98 E657.36 F3000
G1 X46.81 Y-40.3 Z44.99 E657.45 F3000
G1 X27.91 Y-51.21 Z45.12 E659.63 F3000
G1 X27.34 Y-51.12 Z45.13 E659.69 F3000
G1 X26.94 Y-50.42 Z45.13 E659.77 F3000
G1 X21.69 Y-41.33 Z45.2 E660.82 F3000
G1 X21.58 Y-40.71 Z45.2 E660.88 F3000
G1 X22.28 Y-40.3 Z45.21 E660.96 F3000
G1 X37.68 Y-31.41 Z45.32 E662.74 F3000
G1 X37.64 Y-30.81 Z45.32 E662.8 F3000
G1 X37.24 Y-30.11 Z45.33 E662.88 F3000
G1 X36.03 Y-28.01 Z45.34 E663.12 F3000
G1 X35.41 Y-28.1 Z45.35 E663.18 F3000
G1 X34.71 Y-28.5 Z45.35 E663.26 F3000
G1 X20.01 Y-36.99 Z45.46 E664.96 F3000
G1 X19.35 Y-37.27 Z45.46 E665.03 F3000
G1 X18.94 Y-36.57 Z45.47 E665.12 F3000
G1 X-14.19 Y20.82 Z45.88 E671.74 F3000
G1 X-13.91 Y21.34 Z45.88 E671.8 F3000
G1 X-13.21 Y21.74 Z45.89 E671.88 F3000
G1 X2.17 Y30.63 Z46 E673.66 F3000
G1 X1.77 Y31.33 Z46.01 E673.74 F3000
G1 X0.55 Y33.43 Z46.02 E673.98 F3000
G1 X0.13 Y34.06 Z46.03 E674.06 F3000
G1 X-0.57 Y33.66 Z46.03 E674.14 F3000
G1 X-15.97 Y24.77 Z46.14 E675.92 F3000
G1 X-16.53 Y24.87 Z46.15 E675.97 F3000
G1 X-16.94 Y25.57 Z46.15 E676.05 F3000
G1 X-22.19 Y34.67 Z46.22 E677.11 F3000
G1 X-22.28 Y35.28 Z46.22 E677.17 F3000
G1 X-21.58 Y35.69 Z46.23 E677.25 F3000
G1 X-2.68 Y46.6 Z46.36 E679.43 F3000
G1 X-2.2 Y46.19 Z46.37 E679.49 F3000
G1 X-1.79 Y45.49 Z46.37 E679.57 F3000
G1 X47.51 Y-39.89 Z46.98 E689.43 F3000
G1 X46.81 Y-40.3 Z46.99 E689.51 F3000
G1 X27.91 Y-51.21 Z47.12 E691.7 F3000
G1 X27.34 Y-51.12 Z47.13 E691.75 F3000
G1 X26.94 Y-50.42 Z47.13 E691.84 F3000
G1 X21.69 Y-41.33 Z47.2 E692.89 F3000
G1 X21.58 Y-40.71 Z47.2 E692.95 F3000
G1 X22.28 Y-40.3 Z47.21 E693.03 F3000
G1 X37.68 Y-31.41 Z47.32 E694.81 F3000
G1 X37.64 Y-30.81 Z47.32 E694.87 F3000
G1 X37.24 Y-30.11 Z47.33 E694.95 F3000
G1 X36.03 Y-28.01 Z47.34 E695.19 F3000
G1 X35.41 Y-28.1 Z47.35 E695.25 F3000
G1 X34.71 Y-28.5 Z47.35 E695.33 F3000
G1 X20.01 Y-36.99 Z47.46 E697.03 F3000
G1 X19.35 Y-37.27 Z47.46 E697.1 F3000
G1 X18.94 Y-36.57 Z47.47 E697.18 F3000
G1 X-14.19 Y20.82 Z47.88 E703.81 F3000
G1 X-13.91 Y21.34 Z47.88 E703.87 F3000
G1 X-13.21 Y21.74 Z47.89 E703.95 F3000
G1 X2.17 Y30.63 Z48 E705.73 F3000
G1 X1.77 Y31.33 Z48.01 E705.81 F3000
G1 X0.55 Y33.43 Z48.02 E706.05 F3000
G1 X0.13 Y34.06 Z48.03 E706.13 F3000
G1 X-0.57 Y33.66 Z48.03 E706.21 F3000
G1 X-15.97 Y24.77 Z48.14 E707.99 F3000
G1 X-16.53 Y24.87 Z48.15 E708.04 F3000
G1 X-16.94 Y25.57 Z48.15 E708.12 F3000
G1 X-22.19 Y34.67 Z48.22 E709.17 F3000
G1 X-22.28 Y35.28 Z48.22 E709.24 F3000
G1 X-21.58 Y35.69 Z48.23 E709.32 F3000
G1 X-2.68 Y46.6 Z48.36 E711.5 F3000
G1 X-2.2 Y46.19 Z48.37 E711.56 F3000
G1 X-1.79 Y45.49 Z48.37 E711.64 F3000
G1 X47.51 Y-39.89 Z48.98 E721.5 F3000
G1 X46.81 Y-40.3 Z48.99 E721.58 F3000
G1 X27.91 Y-51.21 Z49.12 E723.77 F3000
G1 X27.34 Y-51.12 Z49.13 E723.82 F3000
G1 X26.94 Y-50.42 Z49.13 E723.9 F3000
G1 X21.69 Y-41.33 Z49.2 E724.96 F3000
G1 X21.58 Y-40.71 Z49.2 E725.02 F3000
G1 X22.28 Y-40.3 Z49.21 E725.1 F3000
G1 X37.68 Y-31.41 Z49.32 E726.88 F3000
G1 X37.64 Y-30.81 Z49.32 E726.94 F3000
G1 X37.24 Y-30.11 Z49.33 E727.02 F3000
G1 X36.03 Y-28.01 Z49.34 E727.26 F3000
G1 X35.41 Y-28.1 Z49.35 E727.32 F3000
G1 X34.71 Y-28.5 Z49.35 E727.4 F3000
G1 X20.01 Y-36.99 Z49.46 E729.1 F3000
G1 X19.35 Y-37.27 Z49.46 E729.17 F3000
G1 X18.94 Y-36.57 Z49.47 E729.25 F3000
G1 X-14.19 Y20.82 Z49.88 E735.88 F3000
G1 X-13.91 Y21.34 Z49.88 E735.94 F3000
G1 X-13.21 Y21.74 Z49.89 E736.02 F3000
G1 X2.17 Y30.63 Z50 E737.8 F3000
G1 X1.77 Y31.33 Z50.01 E737.88 F3000
G1 X0.55 Y33.43 Z50.02 E738.12 F3000
G1 X0.13 Y34.06 Z50.03 E738.2 F3000
G1 X-0.57 Y33.66 Z50.03 E738.28 F3000
G1 X-15.97 Y24.77 Z50.14 E740.06 F3000
G1 X-16.53 Y24.87 Z50.15 E740.11 F3000
G1 X-16.94 Y25.57 Z50.15 E740.19 F3000
G1 X-22.19 Y34.67 Z50.22 E741.24 F3000
G1 X-22.28 Y35.28 Z50.22 E741.31 F3000
G1 X-21.58 Y35.69 Z50.23 E741.39 F3000
G1 X-2.68 Y46.6 Z50.36 E743.57 F3000
G1 X-2.2 Y46.19 Z50.37 E743.63 F3000
G1 X-1.79 Y45.49 Z50.37 E743.71 F3000
G1 X47.51 Y-39.89 Z50.98 E753.57 F3000
G1 X46.81 Y-40.3 Z50.99 E753.65 F3000
G1 X27.91 Y-51.21 Z51.12 E755.84 F3000
G1 X27.34 Y-51.12 Z51.13 E755.89 F3000
G1 X26.94 Y-50.42 Z51.13 E755.97 F3000
G1 X21.69 Y-41.33 Z51.2 E757.02 F3000
G1 X21.58 Y-40.71 Z51.2 E757.09 F3000
G1 X22.28 Y-40.3 Z51.21 E757.17 F3000
G1 X37.68 Y-31.41 Z51.32 E758.95 F3000
G1 X37.64 Y-30.81 Z51.32 E759.01 F3000
G1 X37.24 Y-30.11 Z51.33 E759.09 F3000
G1 X36.03 Y-28.01 Z51.34 E759.33 F3000
G1 X35.41 Y-28.1 Z51.35 E759.39 F3000
G1 X34.71 Y-28.5 Z51.35 E759.47 F3000
G1 X20.01 Y-36.99 Z51.46 E761.17 F3000
G1 X19.35 Y-37.27 Z51.46 E761.24 F3000
G1 X18.94 Y-36.57 Z51.47 E761.32 F3000
G1 X-14.19 Y20.82 Z51.88 E767.95 F3000
G1 X-13.91 Y21.34 Z51.88 E768.01 F3000
G1 X-13.21 Y21.74 Z51.89 E768.09 F3000
G1 X2.17 Y30.63 Z52 E769.87 F3000
G1 X1.77 Y31.33 Z52.01 E769.95 F3000
G1 X0.55 Y33.43 Z52.02 E770.19 F3000
G1 X0.13 Y34.06 Z52.03 E770.27 F3000
G1 X-0.57 Y33.66 Z52.03 E770.35 F3000
G1 X-15.97 Y24.77 Z52.14 E772.12 F3000
G1 X-16.53 Y24.87 Z52.15 E772.18 F3000
G1 X-16.94 Y25.57 Z52.15 E772.26 F3000
G1 X-22.19 Y34.67 Z52.22 E773.31 F3000
G1 X-22.28 Y35.28 Z52.22 E773.38 F3000
G1 X-21.58 Y35.69 Z52.23 E773.46 F3000
G1 X-2.68 Y46.6 Z52.36 E775.64 F3000
G1 X-2.2 Y46.19 Z52.37 E775.7 F3000
G1 X-1.79 Y45.49 Z52.37 E775.78 F3000
G1 X47.51 Y-39.89 Z52.98 E785.64 F3000
G1 X46.81 Y-40.3 Z52.99 E785.72 F3000
G1 X27.91 Y-51.21 Z53.12 E787.9 F3000
G1 X27.34 Y-51.12 Z53.13 E787.96 F3000
G1 X26.94 Y-50.42 Z53.13 E788.04 F3000
G1 X21.69 Y-41.33 Z53.2 E789.09 F3000
G1 X21.58 Y-40.71 Z53.2 E789.16 F3000
G1 X22.28 Y-40.3 Z53.21 E789.24 F3000
G1 X37.68 Y-31.41 Z53.32 E791.02 F3000
G1 X37.64 Y-30.81 Z53.32 E791.08 F3000
G1 X37.24 Y-30.11 Z53.33 E791.16 F3000
G1 X36.03 Y-28.01 Z53.34 E791.4 F3000
G1 X35.41 Y-28.1 Z53.35 E791.46 F3000
G1 X34.71 Y-28.5 Z53.35 E791.54 F3000
G1 X20.01 Y-36.99 Z53.46 E793.24 F3000
G1 X19.35 Y-37.27 Z53.46 E793.31 F3000
G1 X18.94 Y-36.57 Z53.47 E793.39 F3000
G1 X-14.19 Y20.82 Z53.88 E800.02 F3000
G1 X-13.91 Y21.34 Z53.88 E800.08 F3000
G1 X-13.21 Y21.74 Z53.89 E800.16 F3000
G1 X2.17 Y30.63 Z54 E801.94 F3000
G1 X1.77 Y31.33 Z54.01 E802.02 F3000
G1 X0.55 Y33.43 Z54.02 E802.26 F3000
G1 X0.13 Y34.06 Z54.03 E802.34 F3000
G1 X-0.57 Y33.66 Z54.03 E802.42 F3000
G1 X-15.97 Y24.77 Z54.14 E804.19 F3000
G1 X-16.53 Y24.87 Z54.15 E804.25 F3000
G1 X-16.94 Y25.57 Z54.15 E804.33 F3000
G1 X-22.19 Y34.67 Z54.22 E805.38 F3000
G1 X-22.28 Y35.28 Z54.22 E805.44 F3000
G1 X-21.58 Y35.69 Z54.23 E805.53 F3000
G1 X-2.68 Y46.6 Z54.36 E807.71 F3000
G1 X-2.2 Y46.19 Z54.37 E807.77 F3000
G1 X-1.79 Y45.49 Z54.37 E807.85 F3000
G1 X47.51 Y-39.89 Z54.98 E817.71 F3000
G1 X46.81 Y-40.3 Z54.99 E817.79 F3000
G1 X27.91 Y-51.21 Z55.12 E819.97 F3000
G1 X27.34 Y-51.12 Z55.13 E820.03 F3000
G1 X26.94 Y-50.42 Z55.13 E820.11 F3000
G1 X21.69 Y-41.33 Z55.2 E821.16 F3000
G1 X21.58 Y-40.71 Z55.2 E821.23 F3000
G1 X22.28 Y-40.3 Z55.21 E821.31 F3000
G1 X37.68 Y-31.41 Z55.32 E823.09 F3000
G1 X37.64 Y-30.81 Z55.32 E823.15 F3000
G1 X37.24 Y-30.11 Z55.33 E823.23 F3000
G1 X36.03 Y-28.01 Z55.34 E823.47 F3000
G1 X35.41 Y-28.1 Z55.35 E823.53 F3000
G1 X34.71 Y-28.5 Z55.35 E823.61 F3000
G1 X20.01 Y-36.99 Z55.46 E825.31 F3000
G1 X19.35 Y-37.27 Z55.46 E825.38 F3000
G1 X18.94 Y-36.57 Z55.47 E825.46 F3000
G1 X-14.19 Y20.82 Z55.88 E832.09 F3000
G1 X-13.91 Y21.34 Z55.88 E832.15 F3000
G1 X-13.21 Y21.74 Z55.89 E832.23 F3000
G1 X2.17 Y30.63 Z56 E834.01 F3000
G1 X1.77 Y31.33 Z56.01 E834.09 F3000
G1 X0.55 Y33.43 Z56.02 E834.33 F3000
G1 X0.13 Y34.06 Z56.03 E834.4 F3000
G1 X-0.57 Y33.66 Z56.03 E834.49 F3000
G1 X-15.97 Y24.77 Z56.14 E836.26 F3000
G1 X-16.53 Y24.87 Z56.15 E836.32 F3000
G1 X-16.94 Y25.57 Z56.15 E836.4 F3000
G1 X-22.19 Y34.67 Z56.22 E837.45 F3000
G1 X-22.28 Y35.28 Z56.22 E837.51 F3000
G1 X-21.58 Y35.69 Z56.23 E837.6 F3000
G1 X-2.68 Y46.6 Z56.36 E839.78 F3000
G1 X-2.2 Y46.19 Z56.37 E839.84 F3000
G1 X-1.79 Y45.49 Z56.37 E839.92 F3000
G1 X47.51 Y-39.89 Z56.98 E849.78 F3000
G1 X46.81 Y-40.3 Z56.99 E849.86 F3000
G1 X27.91 Y-51.21 Z57.12 E852.04 F3000
G1 X27.34 Y-51.12 Z57.13 E852.1 F3000
G1 X26.94 Y-50.42 Z57.13 E852.18 F3000
G1 X21.69 Y-41.33 Z57.2 E853.23 F3000
G1 X21.58 Y-40.71 Z57.2 E853.3 F3000
G1 X22.28 Y-40.3 Z57.21 E853.38 F3000
G1 X37.68 Y-31.41 Z57.32 E855.15 F3000
G1 X37.64 Y-30.81 Z57.32 E855.21 F3000
G1 X37.24 Y-30.11 Z57.33 E855.3 F3000
G1 X36.03 Y-28.01 Z57.34 E855.54 F3000
G1 X35.41 Y-28.1 Z57.35 E855.6 F3000
G1 X34.71 Y-28.5 Z57.35 E855.68 F3000
G1 X20.01 Y-36.99 Z57.46 E857.38 F3000
G1 X19.35 Y-37.27 Z57.46 E857.45 F3000
G1 X18.94 Y-36.57 Z57.47 E857.53 F3000
G1 X-14.19 Y20.82 Z57.88 E864.16 F3000
G1 X-13.91 Y21.34 Z57.88 E864.22 F3000
G1 X-13.21 Y21.74 Z57.89 E864.3 F3000
G1 X2.17 Y30.63 Z58 E866.07 F3000
G1 X1.77 Y31.33 Z58.01 E866.16 F3000
G1 X0.55 Y33.43 Z58.02 E866.4 F3000
G1 X0.13 Y34.06 Z58.03 E866.47 F3000
G1 X-0.57 Y33.66 Z58.03 E866.55 F3000
G1 X-15.97 Y24.77 Z58.14 E868.33 F3000
G1 X-16.53 Y24.87 Z58.15 E868.39 F3000
G1 X-16.94 Y25.57 Z58.15 E868.47 F3000
G1 X-22.19 Y34.67 Z58.22 E869.52 F3000
G1 X-22.28 Y35.28 Z58.22 E869.58 F3000
G1 X-21.58 Y35.69 Z58.23 E869.66 F3000
G1 X-2.68 Y46.6 Z58.36 E871.85 F3000
G1 X-2.2 Y46.19 Z58.37 E871.91 F3000
G1 X-1.79 Y45.49 Z58.37 E871.99 F3000
G1 X47.51 Y-39.89 Z58.98 E881.85 F3000
G1 X46.81 Y-40.3 Z58.99 E881.93 F3000
G1 X27.91 Y-51.21 Z59.12 E884.11 F3000
G1 X27.34 Y-51.12 Z59.13 E884.17 F3000
G1 X26.94 Y-50.42 Z59.13 E884.25 F3000
G1 X21.69 Y-41.33 Z59.2 E885.3 F3000
G1 X21.58 Y-40.71 Z59.2 E885.37 F3000
G1 X22.28 Y-40.3 Z59.21 E885.45 F3000
G1 X37.68 Y-31.41 Z59.32 E887.22 F3000
G1 X37.64 Y-30.81 Z59.32 E887.28 F3000
G1 X37.24 Y-30.11 Z59.33 E887.36 F3000
G1 X36.03 Y-28.01 Z59.34 E887.61 F3000
G1 X35.41 Y-28.1 Z59.35 E887.67 F3000
G1 X34.71 Y-28.5 Z59.35 E887.75 F3000
G1 X20.01 Y-36.99 Z59.46 E889.45 F3000
G1 X19.35 Y-37.27 Z59.46 E889.52 F3000
G1 X18.94 Y-36.57 Z59.47 E889.6 F3000
G1 X-14.19 Y20.82 Z59.88 E896.23 F3000
G1 X-13.91 Y21.34 Z59.88 E896.29 F3000
G1 X-13.21 Y21.74 Z59.89 E896.37 F3000
G1 X2.17 Y30.63 Z60 E898.14 F3000
G1 X1.77 Y31.33 Z60.01 E898.23 F3000
G1 X0.55 Y33.43 Z60.02 E898.47 F3000
G1 X0.13 Y34.06 Z60.03 E898.54 F3000
G1 X-0.57 Y33.66 Z60.03 E898.62 F3000
G1 X-15.97 Y24.77 Z60.14 E900.4 F3000
G1 X-16.53 Y24.87 Z60.15 E900.46 F3000
G1 X-16.94 Y25.57 Z60.15 E900.54 F3000
G1 X-22.19 Y34.67 Z60.22 E901.59 F3000
G1 X-22.28 Y35.28 Z60.22 E901.65 F3000
G1 X-21.58 Y35.69 Z60.23 E901.73 F3000
G1 X-2.68 Y46.6 Z60.36 E903.92 F3000
G1 X-2.2 Y46.19 Z60.37 E903.98 F3000
G1 X-1.79 Y45.49 Z60.37 E904.06 F3000
G1 X47.51 Y-39.89 Z60.98 E913.92 F3000
G1 X46.81 Y-40.3 Z60.99 E914 F3000
G1 X27.91 Y-51.21 Z61.12 E916.18 F3000
G1 X27.34 Y-51.12 Z61.13 E916.24 F3000
G1 X26.94 Y-50.42 Z61.13 E916.32 F3000
G1 X21.69 Y-41.33 Z61.2 E917.37 F3000
G1 X21.58 Y-40.71 Z61.2 E917.43 F3000
G1 X22.28 Y-40.3 Z61.21 E917.52 F3000
G1 X37.68 Y-31.41 Z61.32 E919.29 F3000
G1 X37.64 Y-30.81 Z61.32 E919.35 F3000
G1 X37.24 Y-30.11 Z61.33 E919.43 F3000
G1 X36.03 Y-28.01 Z61.34 E919.68 F3000
G1 X35.41 Y-28.1 Z61.35 E919.74 F3000
G1 X34.71 Y-28.5 Z61.35 E919.82 F3000
G1 X20.01 Y-36.99 Z61.46 E921.52 F3000
G1 X19.35 Y-37.27 Z61.46 E921.59 F3000
G1 X18.94 Y-36.57 Z61.47 E921.67 F3000
G1 X-14.19 Y20.82 Z61.88 E928.3 F3000
G1 X-13.91 Y21.34 Z61.88 E928.36 F3000
G1 X-13.21 Y21.74 Z61.89 E928.44 F3000
G1 X2.17 Y30.63 Z62 E930.21 F3000
G1 X1.77 Y31.33 Z62.01 E930.29 F3000
G1 X0.55 Y33.43 Z62.02 E930.54 F3000
G1 X0.13 Y34.06 Z62.03 E930.61 F3000
G1 X-0.57 Y33.66 Z62.03 E930.69 F3000
G1 X-15.97 Y24.77 Z62.14 E932.47 F3000
G1 X-16.53 Y24.87 Z62.15 E932.53 F3000
G1 X-16.94 Y25.57 Z62.15 E932.61 F3000
G1 X-22.19 Y34.67 Z62.22 E933.66 F3000
G1 X-22.28 Y35.28 Z62.22 E933.72 F3000
G1 X-21.58 Y35.69 Z62.23 E933.8 F3000
G1 X-2.68 Y46.6 Z62.36 E935.99 F3000
G1 X-2.2 Y46.19 Z62.37 E936.05 F3000
G1 X-1.79 Y45.49 Z62.37 E936.13 F3000
G1 X47.51 Y-39.89 Z62.98 E945.99 F3000
G1 X46.81 Y-40.3 Z62.99 E946.07 F3000
G1 X27.91 Y-51.21 Z63.12 E948.25 F3000
G1 X27.34 Y-51.12 Z63.13 E948.31 F3000
G1 X26.94 Y-50.42 Z63.13 E948.39 F3000
G1 X21.69 Y-41.33 Z63.2 E949.44 F3000
G1 X21.58 Y-40.71 Z63.2 E949.5 F3000
G1 X22.28 Y-40.3 Z63.21 E949.58 F3000
G1 X37.68 Y-31.41 Z63.32 E951.36 F3000
G1 X37.64 Y-30.81 Z63.32 E951.42 F3000
G1 X37.24 Y-30.11 Z63.33 E951.5 F3000
G1 X36.03 Y-28.01 Z63.34 E951.75 F3000
G1 X35.41 Y-28.1 Z63.35 E951.81 F3000
G1 X34.71 Y-28.5 Z63.35 E951.89 F3000
G1 X20.01 Y-36.99 Z63.46 E953.59 F3000
G1 X19.35 Y-37.27 Z63.46 E953.66 F3000
G1 X18.94 Y-36.57 Z63.47 E953.74 F3000
G1 X-14.19 Y20.82 Z63.88 E960.37 F3000
G1 X-13.91 Y21.34 Z63.88 E960.43 F3000
G1 X-13.21 Y21.74 Z63.89 E960.51 F3000
G1 X2.17 Y30.63 Z64 E962.28 F3000
G1 X1.77 Y31.33 Z64.01 E962.36 F3000
G1 X0.55 Y33.43 Z64.02 E962.61 F3000
G1 X0.13 Y34.06 Z64.03 E962.68 F3000
G1 X-0.57 Y33.66 Z64.03 E962.76 F3000
G1 X-15.97 Y24.77 Z64.14 E964.54 F3000
G1 X-16.53 Y24.87 Z64.15 E964.6 F3000
G1 X-16.94 Y25.57 Z64.15 E964.68 F3000
G1 X-22.19 Y34.67 Z64.22 E965.73 F3000
G1 X-22.28 Y35.28 Z64.22 E965.79 F3000
G1 X-21.58 Y35.69 Z64.23 E965.87 F3000
G1 X-2.68 Y46.6 Z64.36 E968.05 F3000
G1 X-2.2 Y46.19 Z64.37 E968.12 F3000
G1 X-1.79 Y45.49 Z64.37 E968.2 F3000
G1 X47.51 Y-39.89 Z64.98 E978.06 F3000
G1 X46.81 Y-40.3 Z64.99 E978.14 F3000
G1 X27.91 Y-51.21 Z65.12 E980.32 F3000
G1 X27.34 Y-51.12 Z65.13 E980.38 F3000
G1 X26.94 Y-50.42 Z65.13 E980.46 F3000
G1 X21.69 Y-41.33 Z65.2 E981.51 F3000
G1 X21.58 Y-40.71 Z65.2 E981.57 F3000
G1 X22.28 Y-40.3 Z65.21 E981.65 F3000
G1 X37.68 Y-31.41 Z65.32 E983.43 F3000
G1 X37.64 Y-30.81 Z65.32 E983.49 F3000
G1 X37.24 Y-30.11 Z65.33 E983.57 F3000
G1 X36.03 Y-28.01 Z65.34 E983.82 F3000
G1 X35.41 Y-28.1 Z65.35 E983.88 F3000
G1 X34.71 Y-28.5 Z65.35 E983.96 F3000
G1 X20.01 Y-36.99 Z65.46 E985.66 F3000
G1 X19.35 Y-37.27 Z65.46 E985.73 F3000
G1 X18.94 Y-36.57 Z65.47 E985.81 F3000
G1 X-14.19 Y20.82 Z65.88 E992.44 F3000
G1 X-13.91 Y21.34 Z65.88 E992.49 F3000
G1 X-13.21 Y21.74 Z65.89 E992.58 F3000
G1 X2.17 Y30.63 Z66 E994.35 F3000
G1 X1.77 Y31.33 Z66.01 E994.43 F3000
G1 X0.55 Y33.43 Z66.02 E994.68 F3000
G1 X0.13 Y34.06 Z66.03 E994.75 F3000
G1 X-0.57 Y33.66 Z66.03 E994.83 F3000
G1 X-15.97 Y24.77 Z66.14 E996.61 F3000
G1 X-16.53 Y24.87 Z66.15 E996.67 F3000
G1 X-16.94 Y25.57 Z66.15 E996.75 F3000
G1 X-22.19 Y34.67 Z66.22 E997.8 F3000
G1 X-22.28 Y35.28 Z66.22 E997.86 F3000
G1 X-21.58 Y35.69 Z66.23 E997.94 F3000
G1 X-2.68 Y46.6 Z66.36 E1000.12 F3000
G1 X-2.2 Y46.19 Z66.37 E1000.19 F3000
G1 X-1.79 Y45.49 Z66.37 E1000.27 F3000
G1 X47.51 Y-39.89 Z66.98 E1010.13 F3000
G1 X46.81 Y-40.3 Z66.99 E1010.21 F3000
G1 X27.91 Y-51.21 Z67.12 E1012.39 F3000
G1 X27.34 Y-51.12 Z67.13 E1012.45 F3000
G1 X26.94 Y-50.42 Z67.13 E1012.53 F3000
G1 X21.69 Y-41.33 Z67.2 E1013.58 F3000
G1 X21.58 Y-40.71 Z67.2 E1013.64 F3000
G1 X22.28 Y-40.3 Z67.21 E1013.72 F3000
G1 X37.68 Y-31.41 Z67.32 E1015.5 F3000
G1 X37.64 Y-30.81 Z67.32 E1015.56 F3000
G1 X37.24 Y-30.11 Z67.33 E1015.64 F3000
G1 X36.03 Y-28.01 Z67.34 E1015.88 F3000
G1 X35.41 Y-28.1 Z67.35 E1015.95 F3000
G1 X34.71 Y-28.5 Z67.35 E1016.03 F3000
G1 X20.01 Y-36.99 Z67.46 E1017.72 F3000
G1 X19.35 Y-37.27 Z67.46 E1017.8 F3000
G1 X18.94 Y-36.57 Z67.47 E1017.88 F3000
G1 X-14.19 Y20.82 Z67.88 E1024.51 F3000
G1 X-13.91 Y21.34 Z67.88 E1024.56 F3000
G1 X-13.21 Y21.74 Z67.89 E1024.64 F3000
G1 X2.17 Y30.63 Z68 E1026.42 F3000
G1 X1.77 Y31.33 Z68.01 E1026.5 F3000
G1 X0.55 Y33.43 Z68.02 E1026.75 F3000
G1 X0.13 Y34.06 Z68.03 E1026.82 F3000
G1 X-0.57 Y33.66 Z68.03 E1026.9 F3000
G1 X-15.97 Y24.77 Z68.14 E1028.68 F3000
G1 X-16.53 Y24.87 Z68.15 E1028.74 F3000
G1 X-16.94 Y25.57 Z68.15 E1028.82 F3000
G1 X-22.19 Y34.67 Z68.22 E1029.87 F3000
G1 X-22.28 Y35.28 Z68.22 E1029.93 F3000
G1 X-21.58 Y35.69 Z68.23 E1030.01 F3000
G1 X-2.68 Y46.6 Z68.36 E1032.19 F3000
G1 X-2.2 Y46.19 Z68.37 E1032.26 F3000
G1 X-1.79 Y45.49 Z68.37 E1032.34 F3000
G1 X47.51 Y-39.89 Z68.98 E1042.2 F3000
G1 X46.81 Y-40.3 Z68.99 E1042.28 F3000
G1 X27.91 Y-51.21 Z69.12 E1044.46 F3000
G1 X27.34 Y-51.12 Z69.13 E1044.52 F3000
G1 X26.94 Y-50.42 Z69.13 E1044.6 F3000
G1 X21.69 Y-41.33 Z69.2 E1045.65 F3000
G1 X21.58 Y-40.71 Z69.2 E1045.71 F3000
G1 X22.28 Y-40.3 Z69.21 E1045.79 F3000
G1 X37.68 Y-31.41 Z69.32 E1047.57 F3000
G1 X37.64 Y-30.81 Z69.32 E1047.63 F3000
G1 X37.24 Y-30.11 Z69.33 E1047.71 F3000
G1 X36.03 Y-28.01 Z69.34 E1047.95 F3000
G1 X35.41 Y-28.1 Z69.35 E1048.02 F3000
G1 X34.71 Y-28.5 Z69.35 E1048.1 F3000
G1 X20.01 Y-36.99 Z69.46 E1049.79 F3000
G1 X19.35 Y-37.27 Z69.46 E1049.87 F3000
G1 X18.94 Y-36.57 Z69.47 E1049.95 F3000
G1 X-14.19 Y20.82 Z69.88 E1056.57 F3000
G1 X-13.91 Y21.34 Z69.88 E1056.63 F3000
G1 X-13.21 Y21.74 Z69.89 E1056.71 F3000
G1 X2.17 Y30.63 Z70 E1058.49 F3000
G1 X1.77 Y31.33 Z70.01 E1058.57 F3000
G1 X0.55 Y33.43 Z70.02 E1058.81 F3000
G1 X0.13 Y34.06 Z70.03 E1058.89 F3000
G1 X-0.57 Y33.66 Z70.03 E1058.97 F3000
G1 X-15.97 Y24.77 Z70.14 E1060.75 F3000
G1 X-16.53 Y24.87 Z70.15 E1060.81 F3000
G1 X-16.94 Y25.57 Z70.15 E1060.89 F3000
G1 X-22.19 Y34.67 Z70.22 E1061.94 F3000
G1 X-22.28 Y35.28 Z70.22 E1062 F3000
G1 X-21.58 Y35.69 Z70.23 E1062.08 F3000
G1 X-2.68 Y46.6 Z70.36 E1064.26 F3000
G1 X-2.2 Y46.19 Z70.37 E1064.33 F3000
G1 X-1.79 Y45.49 Z70.37 E1064.41 F3000
G1 X47.51 Y-39.89 Z70.98 E1074.27 F3000
G1 X46.81 Y-40.3 Z70.99 E1074.35 F3000
G1 X27.91 Y-51.21 Z71.12 E1076.53 F3000
G1 X27.34 Y-51.12 Z71.13 E1076.59 F3000
G1 X26.94 Y-50.42 Z71.13 E1076.67 F3000
G1 X21.69 Y-41.33 Z71.2 E1077.72 F3000
G1 X21.58 Y-40.71 Z71.2 E1077.78 F3000
G1 X22.28 Y-40.3 Z71.21 E1077.86 F3000
G1 X37.68 Y-31.41 Z71.32 E1079.64 F3000
G1 X37.64 Y-30.81 Z71.32 E1079.7 F3000
G1 X37.24 Y-30.11 Z71.33 E1079.78 F3000
G1 X36.03 Y-28.01 Z71.34 E1080.02 F3000
G1 X35.41 Y-28.1 Z71.35 E1080.09 F3000
G1 X34.71 Y-28.5 Z71.35 E1080.17 F3000
G1 X20.01 Y-36.99 Z71.46 E1081.86 F3000
G1 X19.35 Y-37.27 Z71.46 E1081.94 F3000
G1 X18.94 Y-36.57 Z71.47 E1082.02 F3000
G1 X-14.19 Y20.82 Z71.88 E1088.64 F3000
G1 X-13.91 Y21.34 Z71.88 E1088.7 F3000
G1 X-13.21 Y21.74 Z71.89 E1088.78 F3000
G1 X2.17 Y30.63 Z72 E1090.56 F3000
G1 X1.77 Y31.33 Z72.01 E1090.64 F3000
G1 X0.55 Y33.43 Z72.02 E1090.88 F3000
G1 X0.13 Y34.06 Z72.03 E1090.96 F3000
G1 X-0.57 Y33.66 Z72.03 E1091.04 F3000
G1 X-15.97 Y24.77 Z72.14 E1092.82 F3000
G1 X-16.53 Y24.87 Z72.15 E1092.88 F3000
G1 X-16.94 Y25.57 Z72.15 E1092.96 F3000
G1 X-22.19 Y34.67 Z72.22 E1094.01 F3000
G1 X-22.28 Y35.28 Z72.22 E1094.07 F3000
G1 X-21.58 Y35.69 Z72.23 E1094.15 F3000
G1 X-2.68 Y46.6 Z72.36 E1096.33 F3000
G1 X-2.2 Y46.19 Z72.37 E1096.4 F3000
G1 X-1.79 Y45.49 Z72.37 E1096.48 F3000
G1 X47.51 Y-39.89 Z72.98 E1106.34 F3000
G1 X46.81 Y-40.3 Z72.99 E1106.42 F3000
G1 X27.91 Y-51.21 Z73.12 E1108.6 F3000
G1 X27.34 Y-51.12 Z73.13 E1108.66 F3000
G1 X26.94 Y-50.42 Z73.13 E1108.74 F3000
G1 X21.69 Y-41.33 Z73.2 E1109.79 F3000
G1 X21.58 Y-40.71 Z73.2 E1109.85 F3000
G1 X22.28 Y-40.3 Z73.21 E1109.93 F3000
G1 X37.68 Y-31.41 Z73.32 E1111.71 F3000
G1 X37.64 Y-30.81 Z73.32 E1111.77 F3000
G1 X37.24 Y-30.11 Z73.33 E1111.85 F3000
G1 X36.03 Y-28.01 Z73.34 E1112.09 F3000
G1 X35.41 Y-28.1 Z73.35 E1112.16 F3000
G1 X34.71 Y-28.5 Z73.35 E1112.24 F3000
G1 X20.01 Y-36.99 Z73.46 E1113.93 F3000
G1 X19.35 Y-37.27 Z73.46 E1114.01 F3000
G1 X18.94 Y-36.57 Z73.47 E1114.09 F3000
G1 X-14.19 Y20.82 Z73.88 E1120.71 F3000
G1 X-13.91 Y21.34 Z73.88 E1120.77 F3000
G1 X-13.21 Y21.74 Z73.89 E1120.85 F3000
G1 X2.17 Y30.63 Z74 E1122.63 F3000
G1 X1.77 Y31.33 Z74.01 E1122.71 F3000
G1 X0.55 Y33.43 Z74.02 E1122.95 F3000
G1 X0.13 Y34.06 Z74.03 E1123.03 F3000
G1 X-0.57 Y33.66 Z74.03 E1123.11 F3000
G1 X-15.97 Y24.77 Z74.14 E1124.89 F3000
G1 X-16.53 Y24.87 Z74.15 E1124.94 F3000
G1 X-16.94 Y25.57 Z74.15 E1125.03 F3000
G1 X-22.19 Y34.67 Z74.22 E1126.08 F3000
G1 X-22.28 Y35.28 Z74.22 E1126.14 F3000
G1 X-21.58 Y35.69 Z74.23 E1126.22 F3000
G1 X-2.68 Y46.6 Z74.36 E1128.4 F3000
G1 X-2.2 Y46.19 Z74.37 E1128.46 F3000
G1 X-1.79 Y45.49 Z74.37 E1128.55 F3000
G1 X47.51 Y-39.89 Z74.98 E1138.41 F3000
G1 X46.81 Y-40.3 Z74.99 E1138.49 F3000
G1 X27.91 Y-51.21 Z75.12 E1140.67 F3000
G1 X27.34 Y-51.12 Z75.13 E1140.73 F3000
G1 X26.94 Y-50.42 Z75.13 E1140.81 F3000
G1 X21.69 Y-41.33 Z75.2 E1141.86 F3000
G1 X21.58 Y-40.71 Z75.2 E1141.92 F3000
G1 X22.28 Y-40.3 Z75.21 E1142 F3000
G1 X37.68 Y-31.41 Z75.32 E1143.78 F3000
G1 X37.64 Y-30.81 Z75.32 E1143.84 F3000
G1 X37.24 Y-30.11 Z75.33 E1143.92 F3000
G1 X36.03 Y-28.01 Z75.34 E1144.16 F3000
G1 X35.41 Y-28.1 Z75.35 E1144.22 F3000
G1 X34.71 Y-28.5 Z75.35 E1144.31 F3000
G1 X20.01 Y-36.99 Z75.46 E1146 F3000
G1 X19.35 Y-37.27 Z75.46 E1146.07 F3000
G1 X18.94 Y-36.57 Z75.47 E1146.16 F3000
G1 X-14.19 Y20.82 Z75.88 E1152.78 F3000
G1 X-13.91 Y21.34 Z75.88 E1152.84 F3000
G1 X-13.21 Y21.74 Z75.89 E1152.92 F3000
G1 X2.17 Y30.63 Z76 E1154.7 F3000
G1 X1.77 Y31.33 Z76.01 E1154.78 F3000
G1 X0.55 Y33.43 Z76.02 E1155.02 F3000
G1 X0.13 Y34.06 Z76.03 E1155.1 F3000
G1 X-0.57 Y33.66 Z76.03 E1155.18 F3000
G1 X-15.97 Y24.77 Z76.14 E1156.96 F3000
G1 X-16.53 Y24.87 Z76.15 E1157.01 F3000
G1 X-16.94 Y25.57 Z76.15 E1157.1 F3000
G1 X-22.19 Y34.67 Z76.22 E1158.15 F3000
G1 X-22.28 Y35.28 Z76.22 E1158.21 F3000
G1 X-21.58 Y35.69 Z76.23 E1158.29 F3000
G1 X-2.68 Y46.6 Z76.36 E1160.47 F3000
G1 X-2.2 Y46.19 Z76.37 E1160.53 F3000
G1 X-1.79 Y45.49 Z76.37 E1160.61 F3000
G1 X47.51 Y-39.89 Z76.98 E1170.47 F3000
G1 X46.81 Y-40.3 Z76.99 E1170.56 F3000
G1 X27.91 Y-51.21 Z77.12 E1172.74 F3000
G1 X27.34 Y-51.12 Z77.13 E1172.79 F3000
G1 X26.94 Y-50.42 Z77.13 E1172.88 F3000
G1 X21.69 Y-41.33 Z77.2 E1173.93 F3000
G1 X21.58 Y-40.71 Z77.2 E1173.99 F3000
G1 X22.28 Y-40.3 Z77.21 E1174.07 F3000
G1 X37.68 Y-31.41 Z77.32 E1175.85 F3000
G1 X37.64 Y-30.81 Z77.32 E1175.91 F3000
G1 X37.24 Y-30.11 Z77.33 E1175.99 F3000
G1 X36.03 Y-28.01 Z77.34 E1176.23 F3000
G1 X35.41 Y-28.1 Z77.35 E1176.29 F3000
G1 X34.71 Y-28.5 Z77.35 E1176.37 F3000
G1 X20.01 Y-36.99 Z77.46 E1178.07 F3000
G1 X19.35 Y-37.27 Z77.46 E1178.14 F3000
G1 X18.94 Y-36.57 Z77.47 E1178.23 F3000
G1 X-14.19 Y20.82 Z77.88 E1184.85 F3000
G1 X-13.91 Y21.34 Z77.88 E1184.91 F3000
G1 X-13.21 Y21.74 Z77.89 E1184.99 F3000
G1 X2.17 Y30.63 Z78 E1186.77 F3000
G1 X1.77 Y31.33 Z78.01 E1186.85 F3000
G1 X0.55 Y33.43 Z78.02 E1187.09 F3000
G1 X0.13 Y34.06 Z78.03 E1187.17 F3000
G1 X-0.57 Y33.66 Z78.03 E1187.25 F3000
G1 X-15.97 Y24.77 Z78.14 E1189.03 F3000
G1 X-16.53 Y24.87 Z78.15 E1189.08 F3000
G1 X-16.94 Y25.57 Z78.15 E1189.16 F3000
G1 X-22.19 Y34.67 Z78.22 E1190.22 F3000
G1 X-22.28 Y35.28 Z78.22 E1190.28 F3000
G1 X-21.58 Y35.69 Z78.23 E1190.36 F3000
G1 X-2.68 Y46.6 Z78.36 E1192.54 F3000
G1 X-2.2 Y46.19 Z78.37 E1192.6 F3000
G1 X-1.79 Y45.49 Z78.37 E1192.68 F3000
G1 X47.51 Y-39.89 Z78.98 E1202.54 F3000
G1 X46.81 Y-40.3 Z78.99 E1202.62 F3000
G1 X27.91 Y-51.21 Z79.12 E1204.81 F3000
G1 X27.34 Y-51.12 Z79.13 E1204.86 F3000
G1 X26.94 Y-50.42 Z79.13 E1204.95 F3000
G1 X21.69 Y-41.33 Z79.2 E1206 F3000
G1 X21.58 Y-40.71 Z79.2 E1206.06 F3000
G1 X22.28 Y-40.3 Z79.21 E1206.14 F3000
G1 X37.68 Y-31.41 Z79.32 E1207.92 F3000
G1 X37.64 Y-30.81 Z79.32 E1207.98 F3000
G1 X37.24 Y-30.11 Z79.33 E1208.06 F3000
G1 X36.03 Y-28.01 Z79.34 E1208.3 F3000
G1 X35.41 Y-28.1 Z79.35 E1208.36 F3000
G1 X34.71 Y-28.5 Z79.35 E1208.44 F3000
G1 X20.01 Y-36.99 Z79.46 E1210.14 F3000
G1 X19.35 Y-37.27 Z79.46 E1210.21 F3000
G1 X18.94 Y-36.57 Z79.47 E1210.29 F3000
G1 X-14.19 Y20.82 Z79.88 E1216.92 F3000
G1 X-13.91 Y21.34 Z79.88 E1216.98 F3000
G1 X-13.21 Y21.74 Z79.89 E1217.06 F3000
G1 X2.17 Y30.63 Z80 E1218.84 F3000
G1 X1.77 Y31.33 Z80.01 E1218.92 F3000
G1 X0.55 Y33.43 Z80.02 E1219.16 F3000
G1 X0.13 Y34.06 Z80.03 E1219.24 F3000
G1 X-0.57 Y33.66 Z80.03 E1219.32 F3000
G1 X-15.97 Y24.77 Z80.14 E1221.1 F3000
G1 X-16.53 Y24.87 Z80.15 E1221.15 F3000
G1 X-16.94 Y25.57 Z80.15 E1221.23 F3000
G1 X-22.19 Y34.67 Z80.22 E1222.28 F3000
G1 X-22.28 Y35.28 Z80.22 E1222.35 F3000
G1 X-21.58 Y35.69 Z80.23 E1222.43 F3000
G1 X-2.68 Y46.6 Z80.36 E1224.61 F3000
G1 X-2.2 Y46.19 Z80.37 E1224.67 F3000
G1 X-1.79 Y45.49 Z80.37 E1224.75 F3000
G1 X47.51 Y-39.89 Z80.98 E1234.61 F3000
G1 X46.81 Y-40.3 Z80.99 E1234.69 F3000
G1 X27.91 Y-51.21 Z81.12 E1236.88 F3000
G1 X27.34 Y-51.12 Z81.13 E1236.93 F3000
G1 X26.94 Y-50.42 Z81.13 E1237.01 F3000
G1 X21.69 Y-41.33 Z81.2 E1238.07 F3000
G1 X21.58 Y-40.71 Z81.2 E1238.13 F3000
G1 X22.28 Y-40.3 Z81.21 E1238.21 F3000
G1 X37.68 Y-31.41 Z81.32 E1239.99 F3000
G1 X37.64 Y-30.81 Z81.32 E1240.05 F3000
G1 X37.24 Y-30.11 Z81.33 E1240.13 F3000
G1 X36.03 Y-28.01 Z81.34 E1240.37 F3000
G1 X35.41 Y-28.1 Z81.35 E1240.43 F3000
G1 X34.71 Y-28.5 Z81.35 E1240.51 F3000
G1 X20.01 Y-36.99 Z81.46 E1242.21 F3000
G1 X19.35 Y-37.27 Z81.46 E1242.28 F3000
G1 X18.94 Y-36.57 Z81.47 E1242.36 F3000
G1 X-14.19 Y20.82 Z81.88 E1248.99 F3000
G1 X-13.91 Y21.34 Z81.88 E1249.05 F3000
G1 X-13.21 Y21.74 Z81.89 E1249.13 F3000
G1 X2.17 Y30.63 Z82 E1250.91 F3000
G1 X1.77 Y31.33 Z82.01 E1250.99 F3000
G1 X0.55 Y33.43 Z82.02 E1251.23 F3000
G1 X0.13 Y34.06 Z82.03 E1251.31 F3000
G1 X-0.57 Y33.66 Z82.03 E1251.39 F3000
G1 X-15.97 Y24.77 Z82.14 E1253.17 F3000
G1 X-16.53 Y24.87 Z82.15 E1253.22 F3000
G1 X-16.94 Y25.57 Z82.15 E1253.3 F3000
G1 X-22.19 Y34.67 Z82.22 E1254.35 F3000
G1 X-22.28 Y35.28 Z82.22 E1254.42 F3000
G1 X-21.58 Y35.69 Z82.23 E1254.5 F3000
G1 X-2.68 Y46.6 Z82.36 E1256.68 F3000
G1 X-2.2 Y46.19 Z82.37 E1256.74 F3000
G1 X-1.79 Y45.49 Z82.37 E1256.82 F3000
G1 X47.51 Y-39.89 Z82.98 E1266.68 F3000
G1 X46.81 Y-40.3 Z82.99 E1266.76 F3000
G1 X27.91 Y-51.21 Z83.12 E1268.95 F3000
G1 X27.34 Y-51.12 Z83.13 E1269 F3000
G1 X26.94 Y-50.42 Z83.13 E1269.08 F3000
G1 X21.69 Y-41.33 Z83.2 E1270.13 F3000
G1 X21.58 Y-40.71 Z83.2 E1270.2 F3000
G1 X22.28 Y-40.3 Z83.21 E1270.28 F3000
G1 X37.68 Y-31.41 Z83.32 E1272.06 F3000
G1 X37.64 Y-30.81 Z83.32 E1272.12 F3000
G1 X37.24 Y-30.11 Z83.33 E1272.2 F3000
G1 X36.03 Y-28.01 Z83.34 E1272.44 F3000
G1 X35.41 Y-28.1 Z83.35 E1272.5 F3000
G1 X34.71 Y-28.5 Z83.35 E1272.58 F3000
G1 X20.01 Y-36.99 Z83.46 E1274.28 F3000
G1 X19.35 Y-37.27 Z83.46 E1274.35 F3000
G1 X18.94 Y-36.57 Z83.47 E1274.43 F3000
G1 X-14.19 Y20.82 Z83.88 E1281.06 F3000
G1 X-13.91 Y21.34 Z83.88 E1281.12 F3000
G1 X-13.21 Y21.74 Z83.89 E1281.2 F3000
G1 X2.17 Y30.63 Z84 E1282.98 F3000
G1 X1.77 Y31.33 Z84.01 E1283.06 F3000
G1 X0.55 Y33.43 Z84.02 E1283.3 F3000
G1 X0.13 Y34.06 Z84.03 E1283.38 F3000
G1 X-0.57 Y33.66 Z84.03 E1283.46 F3000
G1 X-15.97 Y24.77 Z84.14 E1285.23 F3000
G1 X-16.53 Y24.87 Z84.15 E1285.29 F3000
G1 X-16.94 Y25.57 Z84.15 E1285.37 F3000
G1 X-22.19 Y34.67 Z84.22 E1286.42 F3000
G1 X-22.28 Y35.28 Z84.22 E1286.49 F3000
G1 X-21.58 Y35.69 Z84.23 E1286.57 F3000
G1 X-2.68 Y46.6 Z84.36 E1288.75 F3000
G1 X-2.2 Y46.19 Z84.37 E1288.81 F3000
G1 X-1.79 Y45.49 Z84.37 E1288.89 F3000
G1 X47.51 Y-39.89 Z84.98 E1298.75 F3000
G1 X46.81 Y-40.3 Z84.99 E1298.83 F3000
G1 X27.91 Y-51.21 Z85.12 E1301.01 F3000
G1 X27.34 Y-51.12 Z85.13 E1301.07 F3000
G1 X26.94 Y-50.42 Z85.13 E1301.15 F3000
G1 X21.69 Y-41.33 Z85.2 E1302.2 F3000
G1 X21.58 Y-40.71 Z85.2 E1302.27 F3000
G1 X22.28 Y-40.3 Z85.21 E1302.35 F3000
G1 X37.68 Y-31.41 Z85.32 E1304.13 F3000
G1 X37.64 Y-30.81 Z85.32 E1304.19 F3000
G1 X37.24 Y-30.11 Z85.33 E1304.27 F3000
G1 X36.03 Y-28.01 Z85.34 E1304.51 F3000
G1 X35.41 Y-28.1 Z85.35 E1304.57 F3000
G1 X34.71 Y-28.5 Z85.35 E1304.65 F3000
G1 X20.01 Y-36.99 Z85.46 E1306.35 F3000
G1 X19.35 Y-37.27 Z85.46 E1306.42 F3000
G1 X18.94 Y-36.57 Z85.47 E1306.5 F3000
G1 X-14.19 Y20.82 Z85.88 E1313.13 F3000
G1 X-13.91 Y21.34 Z85.88 E1313.19 F3000
G1 X-13.21 Y21.74 Z85.89 E1313.27 F3000
G1 X2.17 Y30.63 Z86 E1315.05 F3000
G1 X1.77 Y31.33 Z86.01 E1315.13 F3000
G1 X0.55 Y33.43 Z86.02 E1315.37 F3000
G1 X0.13 Y34.06 Z86.03 E1315.45 F3000
G1 X-0.57 Y33.66 Z86.03 E1315.53 F3000
G1 X-15.97 Y24.77 Z86.14 E1317.3 F3000
G1 X-16.53 Y24.87 Z86.15 E1317.36 F3000
G1 X-16.94 Y25.57 Z86.15 E1317.44 F3000
G1 X-22.19 Y34.67 Z86.22 E1318.49 F3000
G1 X-22.28 Y35.28 Z86.22 E1318.55 F3000
G1 X-21.58 Y35.69 Z86.23 E1318.64 F3000
G1 X-2.68 Y46.6 Z86.36 E1320.82 F3000
G1 X-2.2 Y46.19 Z86.37 E1320.88 F3000
G1 X-1.79 Y45.49 Z86.37 E1320.96 F3000
G1 X47.51 Y-39.89 Z86.98 E1330.82 F3000
G1 X46.81 Y-40.3 Z86.99 E1330.9 F3000
G1 X27.91 Y-51.21 Z87.12 E1333.08 F3000
G1 X27.34 Y-51.12 Z87.13 E1333.14 F3000
G1 X26.94 Y-50.42 Z87.13 E1333.22 F3000
G1 X21.69 Y-41.33 Z87.2 E1334.27 F3000
G1 X21.58 Y-40.71 Z87.2 E1334.34 F3000
G1 X22.28 Y-40.3 Z87.21 E1334.42 F3000
G1 X37.68 Y-31.41 Z87.32 E1336.19 F3000
G1 X37.64 Y-30.81 Z87.32 E1336.26 F3000
G1 X37.24 Y-30.11 Z87.33 E1336.34 F3000
G1 X36.03 Y-28.01 Z87.34 E1336.58 F3000
G1 X35.41 Y-28.1 Z87.35 E1336.64 F3000
G1 X34.71 Y-28.5 Z87.35 E1336.72 F3000
G1 X20.01 Y-36.99 Z87.46 E1338.42 F3000
G1 X19.35 Y-37.27 Z87.46 E1338.49 F3000
G1 X18.94 Y-36.57 Z87.47 E1338.57 F3000
G1 X-14.19 Y20.82 Z87.88 E1345.2 F3000
G1 X-13.91 Y21.34 Z87.88 E1345.26 F3000
G1 X-13.21 Y21.74 Z87.89 E1345.34 F3000
G1 X2.17 Y30.63 Z88 E1347.12 F3000
G1 X1.77 Y31.33 Z88.01 E1347.2 F3000
G1 X0.55 Y33.43 Z88.02 E1347.44 F3000
G1 X0.13 Y34.06 Z88.03 E1347.51 F3000
G1 X-0.57 Y33.66 Z88.03 E1347.6 F3000
G1 X-15.97 Y24.77 Z88.14 E1349.37 F3000
G1 X-16.53 Y24.87 Z88.15 E1349.43 F3000
G1 X-16.94 Y25.57 Z88.15 E1349.51 F3000
G1 X-22.19 Y34.67 Z88.22 E1350.56 F3000
G1 X-22.28 Y35.28 Z88.22 E1350.62 F3000
G1 X-21.58 Y35.69 Z88.23 E1350.7 F3000
G1 X-2.68 Y46.6 Z88.36 E1352.89 F3000
G1 X-2.2 Y46.19 Z88.37 E1352.95 F3000
G1 X-1.79 Y45.49 Z88.37 E1353.03 F3000
G1 X47.51 Y-39.89 Z88.98 E1362.89 F3000
G1 X46.81 Y-40.3 Z88.99 E1362.97 F3000
G1 X27.91 Y-51.21 Z89.12 E1365.15 F3000
G1 X27.34 Y-51.12 Z89.13 E1365.21 F3000
G1 X26.94 Y-50.42 Z89.13 E1365.29 F3000
G1 X21.69 Y-41.33 Z89.2 E1366.34 F3000
G1 X21.58 Y-40.71 Z89.2 E1366.41 F3000
G1 X22.28 Y-40.3 Z89.21 E1366.49 F3000
G1 X37.68 Y-31.41 Z89.32 E1368.26 F3000
G1 X37.64 Y-30.81 Z89.32 E1368.32 F3000
G1 X37.24 Y-30.11 Z89.33 E1368.41 F3000
G1 X36.03 Y-28.01 Z89.34 E1368.65 F3000
G1 X35.41 Y-28.1 Z89.35 E1368.71 F3000
G1 X34.71 Y-28.5 Z89.35 E1368.79 F3000
G1 X20.01 Y-36.99 Z89.46 E1370.49 F3000
G1 X19.35 Y-37.27 Z89.46 E1370.56 F3000
G1 X18.94 Y-36.57 Z89.47 E1370.64 F3000
G1 X-14.19 Y20.82 Z89.88 E1377.27 F3000
G1 X-13.91 Y21.34 Z89.88 E1377.33 F3000
G1 X-13.21 Y21.74 Z89.89 E1377.41 F3000
G1 X2.17 Y30.63 Z90 E1379.18 F3000
G1 X1.77 Y31.33 Z90.01 E1379.27 F3000
G1 X0.55 Y33.43 Z90.02 E1379.51 F3000
G1 X0.13 Y34.06 Z90.03 E1379.58 F3000
G1 X-0.57 Y33.66 Z90.03 E1379.66 F3000
G1 X-15.97 Y24.77 Z90.14 E1381.44 F3000
G1 X-16.53 Y24.87 Z90.15 E1381.5 F3000
G1 X-16.94 Y25.57 Z90.15 E1381.58 F3000
G1 X-22.19 Y34.67 Z90.22 E1382.63 F3000
G1 X-22.28 Y35.28 Z90.22 E1382.69 F3000
G1 X-21.58 Y35.69 Z90.23 E1382.77 F3000
G1 X-2.68 Y46.6 Z90.36 E1384.96 F3000
G1 X-2.2 Y46.19 Z90.37 E1385.02 F3000
G1 X-1.79 Y45.49 Z90.37 E1385.1 F3000
G1 X47.51 Y-39.89 Z90.98 E1394.96 F3000
G1 X46.81 Y-40.3 Z90.99 E1395.04 F3000
G1 X27.91 Y-51.21 Z91.12 E1397.22 F3000
G1 X27.34 Y-51.12 Z91.13 E1397.28 F3000
G1 X26.94 Y-50.42 Z91.13 E1397.36 F3000
G1 X21.69 Y-41.33 Z91.2 E1398.41 F3000
G1 X21.58 Y-40.71 Z91.2 E1398.47 F3000
G1 X22.28 Y-40.3 Z91.21 E1398.56 F3000
G1 X37.68 Y-31.41 Z91.32 E1400.33 F3000
G1 X37.64 Y-30.81 Z91.32 E1400.39 F3000
G1 X37.24 Y-30.11 Z91.33 E1400.47 F3000
G1 X36.03 Y-28.01 Z91.34 E1400.72 F3000
G1 X35.41 Y-28.1 Z91.35 E1400.78 F3000
G1 X34.71 Y-28.5 Z91.35 E1400.86 F3000
G1 X20.01 Y-36.99 Z91.46 E1402.56 F3000
G1 X19.35 Y-37.27 Z91.46 E1402.63 F3000
G1 X18.94 Y-36.57 Z91.47 E1402.71 F3000
G1 X-14.19 Y20.82 Z91.88 E1409.34 F3000
G1 X-13.91 Y21.34 Z91.88 E1409.4 F3000
G1 X-13.21 Y21.74 Z91.89 E1409.48 F3000
G1 X2.17 Y30.63 Z92 E1411.25 F3000
G1 X1.77 Y31.33 Z92.01 E1411.33 F3000
G1 X0.55 Y33.43 Z92.02 E1411.58 F3000
G1 X0.13 Y34.06 Z92.03 E1411.65 F3000
G1 X-0.57 Y33.66 Z92.03 E1411.73 F3000
G1 X-15.97 Y24.77 Z92.14 E1413.51 F3000
G1 X-16.53 Y24.87 Z92.15 E1413.57 F3000
G1 X-16.94 Y25.57 Z92.15 E1413.65 F3000
G1 X-22.19 Y34.67 Z92.22 E1414.7 F3000
G1 X-22.28 Y35.28 Z92.22 E1414.76 F3000
G1 X-21.58 Y35.69 Z92.23 E1414.84 F3000
G1 X-2.68 Y46.6 Z92.36 E1417.03 F3000
G1 X-2.2 Y46.19 Z92.37 E1417.09 F3000
G1 X-1.79 Y45.49 Z92.37 E1417.17 F3000
G1 X47.51 Y-39.89 Z92.98 E1427.03 F3000
G1 X46.81 Y-40.3 Z92.99 E1427.11 F3000
G1 X27.91 Y-51.21 Z93.12 E1429.29 F3000
G1 X27.34 Y-51.12 Z93.13 E1429.35 F3000
G1 X26.94 Y-50.42 Z93.13 E1429.43 F3000
G1 X21.69 Y-41.33 Z93.2 E1430.48 F3000
G1 X21.58 Y-40.71 Z93.2 E1430.54 F3000
G1 X22.28 Y-40.3 Z93.21 E1430.62 F3000
G1 X37.68 Y-31.41 Z93.32 E1432.4 F3000
G1 X37.64 Y-30.81 Z93.32 E1432.46 F3000
G1 X37.24 Y-30.11 Z93.33 E1432.54 F3000
G1 X36.03 Y-28.01 Z93.34 E1432.79 F3000
G1 X35.41 Y-28.1 Z93.35 E1432.85 F3000
G1 X34.71 Y-28.5 Z93.35 E1432.93 F3000
G1 X20.01 Y-36.99 Z93.46 E1434.63 F3000
G1 X19.35 Y-37.27 Z93.46 E1434.7 F3000
G1 X18.94 Y-36.57 Z93.47 E1434.78 F3000
G1 X-14.19 Y20.82 Z93.88 E1441.41 F3000
G1 X-13.91 Y21.34 Z93.88 E1441.47 F3000
G1 X-13.21 Y21.74 Z93.89 E1441.55 F3000
G1 X2.17 Y30.63 Z94 E1443.32 F3000
G1 X1.77 Y31.33 Z94.01 E1443.4 F3000
G1 X0.55 Y33.43 Z94.02 E1443.65 F3000
G1 X0.13 Y34.06 Z94.03 E1443.72 F3000
G1 X-0.57 Y33.66 Z94.03 E1443.8 F3000
G1 X-15.97 Y24.77 Z94.14 E1445.58 F3000
G1 X-16.53 Y24.87 Z94.15 E1445.64 F3000
G1 X-16.94 Y25.57 Z94.15 E1445.72 F3000
G1 X-22.19 Y34.67 Z94.22 E1446.77 F3000
G1 X-22.28 Y35.28 Z94.22 E1446.83 F3000
G1 X-21.58 Y35.69 Z94.23 E1446.91 F3000
G1 X-2.68 Y46.6 Z94.36 E1449.1 F3000
G1 X-2.2 Y46.19 Z94.37 E1449.16 F3000
G1 X-1.79 Y45.49 Z94.37 E1449.24 F3000
G1 X47.51 Y-39.89 Z94.98 E1459.1 F3000
G1 X46.81 Y-40.3 Z94.99 E1459.18 F3000
G1 X27.91 Y-51.21 Z95.12 E1461.36 F3000
G1 X27.34 Y-51.12 Z95.13 E1461.42 F3000
G1 X26.94 Y-50.42 Z95.13 E1461.5 F3000
G1 X21.69 Y-41.33 Z95.2 E1462.55 F3000
G1 X21.58 Y-40.71 Z95.2 E1462.61 F3000
G1 X22.28 Y-40.3 Z95.21 E1462.69 F3000
G1 X37.68 Y-31.41 Z95.32 E1464.47 F3000
G1 X37.64 Y-30.81 Z95.32 E1464.53 F3000
G1 X37.24 Y-30.11 Z95.33 E1464.61 F3000
G1 X36.03 Y-28.01 Z95.34 E1464.86 F3000
G1 X35.41 Y-28.1 Z95.35 E1464.92 F3000
G1 X34.71 Y-28.5 Z95.35 E1465 F3000
G1 X20.01 Y-36.99 Z95.46 E1466.7 F3000
G1 X19.35 Y-37.27 Z95.46 E1466.77 F3000
G1 X18.94 Y-36.57 Z95.47 E1466.85 F3000
G1 X-14.19 Y20.82 Z95.88 E1473.48 F3000
G1 X-13.91 Y21.34 Z95.88 E1473.54 F3000
G1 X-13.21 Y21.74 Z95.89 E1473.62 F3000
G1 X2.17 Y30.63 Z96 E1475.39 F3000
G1 X1.77 Y31.33 Z96.01 E1475.47 F3000
G1 X0.55 Y33.43 Z96.02 E1475.72 F3000
G1 X0.13 Y34.06 Z96.03 E1475.79 F3000
G1 X-0.57 Y33.66 Z96.03 E1475.87 F3000
G1 X-15.97 Y24.77 Z96.14 E1477.65 F3000
G1 X-16.53 Y24.87 Z96.15 E1477.71 F3000
G1 X-16.94 Y25.57 Z96.15 E1477.79 F3000
G1 X-22.19 Y34.67 Z96.22 E1478.84 F3000
G1 X-22.28 Y35.28 Z96.22 E1478.9 F3000
G1 X-21.58 Y35.69 Z96.23 E1478.98 F3000
G1 X-2.68 Y46.6 Z96.36 E1481.16 F3000
G1 X-2.2 Y46.19 Z96.37 E1481.23 F3000
G1 X-1.79 Y45.49 Z96.37 E1481.31 F3000
G1 X47.51 Y-39.89 Z96.98 E1491.17 F3000
G1 X46.81 Y-40.3 Z96.99 E1491.25 F3000
G1 X27.91 Y-51.21 Z97.12 E1493.43 F3000
G1 X27.34 Y-51.12 Z97.13 E1493.49 F3000
G1 X26.94 Y-50.42 Z97.13 E1493.57 F3000
G1 X21.69 Y-41.33 Z97.2 E1494.62 F3000
G1 X21.58 Y-40.71 Z97.2 E1494.68 F3000
G1 X22.28 Y-40.3 Z97.21 E1494.76 F3000
G1 X37.68 Y-31.41 Z97.32 E1496.54 F3000
G1 X37.64 Y-30.81 Z97.32 E1496.6 F3000
G1 X37.24 Y-30.11 Z97.33 E1496.68 F3000
G1 X36.03 Y-28.01 Z97.34 E1496.93 F3000
G1 X35.41 Y-28.1 Z97.35 E1496.99 F3000
G1 X34.71 Y-28.5 Z97.35 E1497.07 F3000
G1 X20.01 Y-36.99 Z97.46 E1498.77 F3000
G1 X19.35 Y-37.27 Z97.46 E1498.84 F3000
G1 X18.94 Y-36.57 Z97.47 E1498.92 F3000
G1 X-14.19 Y20.82 Z97.88 E1505.55 F3000
G1 X-13.91 Y21.34 Z97.88 E1505.6 F3000
G1 X-13.21 Y21.74 Z97.89 E1505.69 F3000
G1 X2.17 Y30.63 Z98 E1507.46 F3000
G1 X1.77 Y31.33 Z98.01 E1507.54 F3000
G1 X0.55 Y33.43 Z98.02 E1507.79 F3000
G1 X0.13 Y34.06 Z98.03 E1507.86 F3000
G1 X-0.57 Y33.66 Z98.03 E1507.94 F3000
G1 X-15.97 Y24.77 Z98.14 E1509.72 F3000
G1 X-16.53 Y24.87 Z98.15 E1509.78 F3000
G1 X-16.94 Y25.57 Z98.15 E1509.86 F3000
G1 X-22.19 Y34.67 Z98.22 E1510.91 F3000
G1 X-22.28 Y35.28 Z98.22 E1510.97 F3000
G1 X-21.58 Y35.69 Z98.23 E1511.05 F3000
G1 X-2.68 Y46.6 Z98.36 E1513.23 F3000
G1 X-2.2 Y46.19 Z98.37 E1513.3 F3000
G1 X-1.79 Y45.49 Z98.37 E1513.38 F3000
G1 X47.51 Y-39.89 Z98.98 E1523.24 F3000
G1 X46.81 Y-40.3 Z98.99 E1523.32 F3000
G1 X27.91 Y-51.21 Z99.12 E1525.5 F3000
G1 X27.34 Y-51.12 Z99.13 E1525.56 F3000
G1 X26.94 Y-50.42 Z99.13 E1525.64 F3000
G1 X21.69 Y-41.33 Z99.2 E1526.69 F3000
G1 X21.58 Y-40.71 Z99.2 E1526.75 F3000
G1 X22.28 Y-40.3 Z99.21 E1526.83 F3000
G1 X37.68 Y-31.41 Z99.32 E1528.61 F3000
G1 X37.64 Y-30.81 Z99.32 E1528.67 F3000
G1 X37.24 Y-30.11 Z99.33 E1528.75 F3000
G1 X36.03 Y-28.01 Z99.34 E1528.99 F3000
G1 X35.41 Y-28.1 Z99.35 E1529.06 F3000
G1 X34.71 Y-28.5 Z99.35 E1529.14 F3000
G1 X20.01 Y-36.99 Z99.46 E1530.83 F3000
G1 X19.35 Y-37.27 Z99.46 E1530.91 F3000
G1 X18.94 Y-36.57 Z99.47 E1530.99 F3000
G1 X-14.19 Y20.82 Z99.88 E1537.62 F3000
G1 X-13.91 Y21.34 Z99.88 E1537.67 F3000
G1 X-13.21 Y21.74 Z99.89 E1537.75 F3000
G1 X2.17 Y30.63 Z100 E1539.53 F3000
G1 X1.77 Y31.33 Z100.01 E1539.61 F3000
G1 X0.55 Y33.43 Z100.02 E1539.85 F3000
G1 X0.13 Y34.06 Z100.03 E1539.93 F3000
G1 X-0.57 Y33.66 Z100.03 E1540.01 F3000
G1 X-15.97 Y24.77 Z100.14 E1541.79 F3000
G1 X-16.53 Y24.87 Z100.15 E1541.85 F3000
G1 X-16.94 Y25.57 Z100.15 E1541.93 F3000
G1 X-22.19 Y34.67 Z100.22 E1542.98 F3000
G1 X-22.28 Y35.28 Z100.22 E1543.04 F3000
G1 X-21.58 Y35.69 Z100.23 E1543.12 F3000
G1 X-2.68 Y46.6 Z100.36 E1545.3 F3000
G1 X-2.2 Y46.19 Z100.37 E1545.37 F3000
G1 X-1.79 Y45.49 Z100.37 E1545.45 F3000
G1 X47.51 Y-39.89 Z100.98 E1555.31 F3000
G1 X46.81 Y-40.3 Z100.99 E1555.39 F3000
G1 X27.91 Y-51.21 Z101.12 E1557.57 F3000
G1 X27.34 Y-51.12 Z101.13 E1557.63 F3000
G1 X26.94 Y-50.42 Z101.13 E1557.71 F3000
G1 X21.69 Y-41.33 Z101.2 E1558.76 F3000
G1 X21.58 Y-40.71 Z101.2 E1558.82 F3000
G1 X22.28 Y-40.3 Z101.21 E1558.9 F3000
G1 X37.68 Y-31.41 Z101.32 E1560.68 F3000
G1 X37.64 Y-30.81 Z101.32 E1560.74 F3000
G1 X37.24 Y-30.11 Z101.33 E1560.82 F3000
G1 X36.03 Y-28.01 Z101.34 E1561.06 F3000
G1 X35.41 Y-28.1 Z101.35 E1561.13 F3000
G1 X34.71 Y-28.5 Z101.35 E1561.21 F3000
G1 X20.01 Y-36.99 Z101.46 E1562.9 F3000
G1 X19.35 Y-37.27 Z101.46 E1562.98 F3000
G1 X18.94 Y-36.57 Z101.47 E1563.06 F3000
G1 X-14.19 Y20.82 Z101.88 E1569.68 F3000
G1 X-13.91 Y21.34 Z101.88 E1569.74 F3000
G1 X-13.21 Y21.74 Z101.89 E1569.82 F3000
G1 X2.17 Y30.63 Z102 E1571.6 F3000
G0 X9.03 Y34.74 Z102.05 E1571.6 F1500 ; END OF SAFE END
G0 X9.03 Y34.74 Z104.05 E1571.6 F1500 ; END OF RETRACT UP
G92 E0 F0 ; END OF PRINTING PATH 1 OF 1
; START OF FOOTER
G28 X0 Y0 ; MOVE TO ORIGIN (HOME)
; END OF FOOTER
